{"type":"FeatureCollection","generator":"Nettoyeur Bouteville (Densité: 1m)","features":[{"type":"Feature","properties":{"@id":"way/54412766","highway":"raceway","name":"Piste vitesse","oneway":"yes","sport":"motor","width":"6","@timestamp":"2026-05-25T17:51:31Z","@version":9,"@changeset":183170684,"@user":"YBau","@uid":19282503},"geometry":{"type":"LineString","coordinates":[[-0.0958743,45.2428731],[-0.09586163708413308,45.24287192404155],[-0.09584897416826614,45.24287074808311],[-0.09583631125239922,45.24286957212466],[-0.09582364833653229,45.24286839616621],[-0.09581098542066536,45.24286722020776],[-0.09579832250479843,45.24286604424932],[-0.09578565958893151,45.24286486829087],[-0.09577299667306458,45.24286369233243],[-0.09576033375719765,45.24286251637398],[-0.09574767084133072,45.24286134041553],[-0.0957350079254638,45.242860164457085],[-0.09572234500959687,45.24285898849864],[-0.09570968209372994,45.242857812540194],[-0.09569701917786302,45.24285663658175],[-0.09568435626199609,45.2428554606233],[-0.09567169334612917,45.24285428466486],[-0.09565903043026223,45.242853108706406],[-0.09564636751439531,45.24285193274796],[-0.09563370459852838,45.242850756789515],[-0.09562104168266146,45.24284958083107],[-0.09560837876679452,45.242848404872625],[-0.0955957158509276,45.24284722891418],[-0.09558305293506067,45.24284605295573],[-0.09557039001919375,45.24284487699728],[-0.0955631,45.2428442],[-0.09555055395256469,45.24284251383503],[-0.09553800790512938,45.24284082767005],[-0.09552546185769407,45.24283914150508],[-0.09551291581025875,45.2428374553401],[-0.09550036976282344,45.24283576917513],[-0.09548782371538814,45.24283408301015],[-0.09547527766795283,45.24283239684518],[-0.09546273162051752,45.2428307106802],[-0.09545018557308221,45.24282902451523],[-0.09543763952564689,45.24282733835025],[-0.09542509347821158,45.24282565218528],[-0.09541254743077628,45.2428239660203],[-0.09540000138334097,45.24282227985533],[-0.09538745533590566,45.242820593690354],[-0.09537490928847035,45.24281890752538],[-0.09536236324103504,45.242817221360404],[-0.09534981719359972,45.24281553519543],[-0.09533727114616442,45.242813849030455],[-0.09532472509872911,45.242812162865484],[-0.0953121790512938,45.242810476700505],[-0.09529963300385849,45.242808790535534],[-0.09528708695642318,45.242807104370556],[-0.09527454090898786,45.242805418205585],[-0.09526199486155255,45.242803732040606],[-0.09524944881411725,45.242802045875635],[-0.09523690276668194,45.24280035971066],[-0.09522435671924663,45.242798673545686],[-0.09521181067181132,45.24279698738071],[-0.095199264624376,45.242795301215736],[-0.0951867185769407,45.24279361505076],[-0.09517417252950539,45.24279192888579],[-0.09516162648207008,45.24279024272081],[-0.09514908043463477,45.24278855655584],[-0.09513653438719946,45.24278687039086],[-0.09512398833976415,45.24278518422589],[-0.09511144229232883,45.24278349806091],[-0.09509889624489352,45.24278181189594],[-0.09508635019745822,45.24278012573096],[-0.09507380415002291,45.24277843956599],[-0.0950612581025876,45.24277675340101],[-0.09504871205515229,45.24277506723604],[-0.09503616600771697,45.24277338107106],[-0.09502361996028166,45.24277169490609],[-0.09501107391284636,45.24277000874111],[-0.09499852786541105,45.24276832257614],[-0.09498598181797574,45.24276663641116],[-0.09497343577054043,45.24276495024619],[-0.09496088972310512,45.24276326408121],[-0.0949483436756698,45.24276157791624],[-0.0949357976282345,45.24275989175126],[-0.09492325158079919,45.24275820558629],[-0.09491070553336388,45.24275651942131],[-0.09489815948592857,45.24275483325634],[-0.09488561343849326,45.24275314709136],[-0.09487306739105794,45.24275146092639],[-0.09486052134362263,45.242749774761414],[-0.09484797529618733,45.24274808859644],[-0.09483542924875202,45.242746402431465],[-0.09482288320131671,45.24274471626649],[-0.0948103371538814,45.242743030101515],[-0.09479779110644608,45.242741343936544],[-0.09478524505901077,45.242739657771565],[-0.09477269901157546,45.242737971606594],[-0.09476015296414016,45.242736285441616],[-0.09474760691670485,45.242734599276645],[-0.09473506086926954,45.24273291311167],[-0.09472251482183423,45.242731226946695],[-0.09470996877439891,45.24272954078172],[-0.0946974227269636,45.242727854616746],[-0.0946848766795283,45.24272616845177],[-0.09467233063209299,45.242724482286796],[-0.09465978458465768,45.24272279612182],[-0.09464723853722237,45.24272110995685],[-0.09463469248978705,45.24271942379187],[-0.09462214644235174,45.2427177376269],[-0.09460960039491643,45.24271605146192],[-0.09459705434748113,45.24271436529695],[-0.09458450830004582,45.24271267913197],[-0.09457196225261051,45.242710992967],[-0.0945594162051752,45.24270930680202],[-0.09454687015773988,45.24270762063705],[-0.09453432411030457,45.24270593447207],[-0.09452177806286927,45.2427042483071],[-0.09450923201543396,45.24270256214212],[-0.09449668596799865,45.24270087597715],[-0.09448413992056334,45.24269918981217],[-0.09447159387312802,45.2426975036472],[-0.09445904782569271,45.24269581748222],[-0.0944465017782574,45.24269413131725],[-0.0944339557308221,45.24269244515227],[-0.09442140968338679,45.2426907589873],[-0.09440886363595148,45.24268907282232],[-0.09439631758851616,45.24268738665735],[-0.09438377154108085,45.24268570049237],[-0.09437122549364554,45.2426840143274],[-0.09435867944621024,45.242682328162424],[-0.09434613339877493,45.24268064199745],[-0.09433358735133962,45.242678955832474],[-0.09432104130390431,45.2426772696675],[-0.09430849525646899,45.242675583502525],[-0.09429594920903368,45.24267389733755],[-0.09428340316159838,45.242672211172575],[-0.09427085711416307,45.242670525007604],[-0.09425831106672776,45.242668838842626],[-0.09424576501929245,45.242667152677654],[-0.09423321897185713,45.242665466512676],[-0.09422067292442182,45.242663780347705],[-0.09420812687698651,45.24266209418273],[-0.0941955808295512,45.242660408017755],[-0.0941830347821159,45.24265872185278],[-0.09417048873468059,45.242657035687806],[-0.09415794268724528,45.24265534952283],[-0.09414539663980996,45.242653663357856],[-0.09413285059237465,45.24265197719288],[-0.0941293,45.2426515],[-0.09411672847714565,45.242649911018944],[-0.09410415695429131,45.24264832203789],[-0.09409158543143697,45.24264673305683],[-0.09407901390858263,45.24264514407577],[-0.09406644238572828,45.242643555094716],[-0.09405387086287394,45.24264196611366],[-0.09404129934001959,45.2426403771326],[-0.09402872781716524,45.242638788151545],[-0.09401615629431091,45.24263719917049],[-0.09400358477145657,45.24263561018943],[-0.09399101324860222,45.242634021208374],[-0.09397844172574787,45.24263243222732],[-0.09396587020289353,45.24263084324626],[-0.09395329868003918,45.2426292542652],[-0.09394072715718485,45.24262766528415],[-0.0939281556343305,45.24262607630309],[-0.09391558411147616,45.24262448732203],[-0.09390301258862181,45.242622898340976],[-0.09389044106576747,45.242621309359926],[-0.09387786954291312,45.24261972037887],[-0.09386529802005879,45.24261813139781],[-0.09385272649720444,45.242616542416755],[-0.0938401549743501,45.2426149534357],[-0.09382758345149575,45.24261336445464],[-0.0938150119286414,45.242611775473584],[-0.09380244040578707,45.24261018649253],[-0.09378986888293273,45.24260859751147],[-0.09377729736007838,45.24260700853041],[-0.09376472583722403,45.242605419549356],[-0.09375215431436969,45.2426038305683],[-0.09373958279151534,45.24260224158724],[-0.09372701126866101,45.242600652606185],[-0.09371443974580666,45.24259906362513],[-0.09370186822295232,45.24259747464407],[-0.09368929670009797,45.242595885663015],[-0.09367672517724362,45.24259429668196],[-0.09366415365438928,45.2425927077009],[-0.09365158213153495,45.242591118719844],[-0.0936390106086806,45.24258952973879],[-0.09362643908582625,45.24258794075773],[-0.09361386756297191,45.24258635177667],[-0.09360129604011756,45.242584762795616],[-0.09358872451726322,45.24258317381456],[-0.09357615299440888,45.2425815848335],[-0.09356358147155454,45.242579995852445],[-0.09355100994870019,45.24257840687139],[-0.09353843842584585,45.24257681789033],[-0.0935258669029915,45.242575228909274],[-0.09351329538013717,45.24257363992822],[-0.09350072385728282,45.24257205094716],[-0.09348815233442848,45.2425704619661],[-0.09347558081157413,45.242568872985046],[-0.09346300928871978,45.24256728400399],[-0.09345043776586544,45.24256569502293],[-0.0934378662430111,45.242564106041876],[-0.09342529472015676,45.24256251706082],[-0.09341272319730241,45.24256092807977],[-0.09340015167444807,45.24255933909871],[-0.09338758015159372,45.242557750117655],[-0.09337500862873938,45.2425561611366],[-0.09336243710588504,45.24255457215554],[-0.0933498655830307,45.242552983174484],[-0.09333729406017635,45.24255139419343],[-0.093324722537322,45.24254980521237],[-0.09331215101446766,45.24254821623131],[-0.09329957949161331,45.242546627250256],[-0.09328700796875898,45.2425450382692],[-0.09327443644590463,45.24254344928814],[-0.09326186492305029,45.242541860307085],[-0.09324929340019594,45.24254027132603],[-0.0932367218773416,45.24253868234497],[-0.09322415035448725,45.242537093363914],[-0.09321157883163292,45.24253550438286],[-0.09319900730877857,45.2425339154018],[-0.09318643578592423,45.24253232642074],[-0.09317386426306988,45.24253073743969],[-0.09316129274021553,45.24252914845863],[-0.0931487212173612,45.24252755947757],[-0.09313614969450686,45.242525970496516],[-0.09312357817165251,45.24252438151546],[-0.09311100664879816,45.2425227925344],[-0.09309843512594382,45.242521203553345],[-0.09308586360308947,45.24251961457229],[-0.09307329208023514,45.24251802559123],[-0.0930607205573808,45.242516436610174],[-0.09304814903452645,45.24251484762912],[-0.0930355775116721,45.24251325864806],[-0.09302300598881776,45.242511669667],[-0.09301043446596341,45.242510080685946],[-0.09299786294310908,45.24250849170489],[-0.09298529142025473,45.24250690272383],[-0.09297271989740039,45.242505313742775],[-0.09296014837454604,45.24250372476172],[-0.0929475768516917,45.24250213578066],[-0.09293500532883736,45.24250054679961],[-0.09292243380598302,45.242498957818555],[-0.09290986228312867,45.2424973688375],[-0.09289729076027432,45.24249577985644],[-0.09288471923741998,45.242494190875384],[-0.09287214771456563,45.24249260189433],[-0.0928595761917113,45.24249101291327],[-0.09284700466885695,45.24248942393221],[-0.0928344331460026,45.242487834951156],[-0.09282186162314826,45.2424862459701],[-0.09280929010029391,45.24248465698904],[-0.09279671857743957,45.242483068007985],[-0.09278414705458524,45.24248147902693],[-0.09277157553173089,45.24247989004587],[-0.09275900400887654,45.242478301064814],[-0.0927464324860222,45.24247671208376],[-0.09273386096316785,45.2424751231027],[-0.0927212894403135,45.24247353412164],[-0.09270871791745917,45.242471945140586],[-0.09269614639460483,45.24247035615953],[-0.09268357487175048,45.24246876717847],[-0.09267100334889614,45.242467178197415],[-0.09265843182604179,45.24246558921636],[-0.09264586030318744,45.2424640002353],[-0.09263328878033311,45.242462411254245],[-0.09262071725747877,45.24246082227319],[-0.09260814573462442,45.24245923329213],[-0.09259557421177007,45.242457644311074],[-0.09258300268891573,45.24245605533002],[-0.0925704311660614,45.24245446634896],[-0.09255785964320705,45.2424528773679],[-0.0925452881203527,45.242451288386846],[-0.09253271659749836,45.24244969940579],[-0.09252014507464401,45.24244811042473],[-0.09250757355178967,45.242446521443675],[-0.09249500202893533,45.24244493246262],[-0.09248243050608099,45.24244334348156],[-0.09246985898322664,45.242441754500504],[-0.0924572874603723,45.242440165519454],[-0.09244471593751795,45.2424385765384],[-0.0924321444146636,45.24243698755734],[-0.09241957289180927,45.24243539857628],[-0.09240700136895492,45.24243380959523],[-0.09239442984610058,45.24243222061417],[-0.09238185832324623,45.24243063163311],[-0.09236928680039189,45.242429042652056],[-0.09235671527753754,45.242427453671],[-0.09234414375468321,45.24242586468994],[-0.09233157223182886,45.242424275708885],[-0.09231900070897452,45.24242268672783],[-0.09230642918612017,45.24242109774677],[-0.09229385766326582,45.242419508765714],[-0.09228128614041149,45.24241791978466],[-0.09226871461755715,45.2424163308036],[-0.0922561430947028,45.24241474182254],[-0.09224357157184845,45.242413152841486],[-0.09223100004899411,45.24241156386043],[-0.09221842852613976,45.24240997487937],[-0.09220585700328543,45.242408385898315],[-0.09219328548043108,45.24240679691726],[-0.09218071395757674,45.2424052079362],[-0.09216814243472239,45.242403618955144],[-0.09215557091186805,45.24240202997409],[-0.0921429993890137,45.24240044099303],[-0.09213042786615937,45.24239885201197],[-0.09211785634330502,45.24239726303092],[-0.09210528482045068,45.24239567404986],[-0.09209271329759633,45.2423940850688],[-0.09208014177474198,45.242392496087746],[-0.09206757025188764,45.24239090710669],[-0.0920549987290333,45.24238931812563],[-0.09204242720617896,45.242387729144575],[-0.09202985568332461,45.24238614016352],[-0.09201728416047027,45.24238455118246],[-0.09200471263761592,45.242382962201404],[-0.09199214111476159,45.242381373220354],[-0.09197956959190724,45.2423797842393],[-0.0919669980690529,45.24237819525824],[-0.09195442654619855,45.24237660627718],[-0.0919418550233442,45.242375017296126],[-0.09192928350048986,45.24237342831507],[-0.09191671197763553,45.24237183933401],[-0.09190414045478118,45.242370250352955],[-0.09189156893192683,45.2423686613719],[-0.09187899740907249,45.24236707239084],[-0.09186642588621814,45.242365483409785],[-0.0918538543633638,45.24236389442873],[-0.09184128284050946,45.24236230544767],[-0.09182871131765512,45.242360716466614],[-0.09181613979480077,45.24235912748556],[-0.09180356827194643,45.2423575385045],[-0.09179099674909208,45.24235594952344],[-0.09177842522623773,45.242354360542386],[-0.0917658537033834,45.24235277156133],[-0.09175328218052906,45.24235118258027],[-0.09174071065767471,45.242349593599215],[-0.09172813913482036,45.24234800461816],[-0.09171556761196602,45.2423464156371],[-0.09170299608911167,45.242344826656044],[-0.09169042456625734,45.24234323767499],[-0.091677853043403,45.24234164869393],[-0.09166528152054865,45.24234005971287],[-0.0916527099976943,45.242338470731816],[-0.09164013847483996,45.24233688175076],[-0.09162756695198562,45.2423352927697],[-0.09161499542913128,45.242333703788645],[-0.09160242390627693,45.24233211480759],[-0.09158985238342258,45.24233052582653],[-0.09157728086056824,45.242328936845475],[-0.09156470933771389,45.24232734786442],[-0.09155213781485956,45.24232575888336],[-0.09153956629200521,45.242324169902304],[-0.09152699476915087,45.24232258092125],[-0.09151442324629652,45.2423209919402],[-0.09150185172344218,45.24231940295914],[-0.09148928020058783,45.24231781397808],[-0.0914767086777335,45.242316224997026],[-0.09146413715487915,45.24231463601597],[-0.0914515656320248,45.24231304703491],[-0.09143899410917046,45.242311458053855],[-0.09142642258631611,45.2423098690728],[-0.09141385106346178,45.24230828009174],[-0.09140127954060744,45.242306691110684],[-0.09138870801775309,45.24230510212963],[-0.09137613649489874,45.24230351314857],[-0.0913635649720444,45.24230192416751],[-0.09135099344919005,45.24230033518646],[-0.09133842192633572,45.2422987462054],[-0.09132585040348137,45.24229715722434],[-0.09131327888062703,45.242295568243286],[-0.09130070735777268,45.24229397926223],[-0.09128813583491834,45.24229239028117],[-0.09127556431206399,45.242290801300115],[-0.09126299278920966,45.24228921231906],[-0.09125042126635531,45.242287623338],[-0.09123784974350096,45.242286034356944],[-0.09122527822064662,45.24228444537589],[-0.09121270669779227,45.24228285639483],[-0.09120013517493793,45.24228126741377],[-0.0911875636520836,45.242279678432716],[-0.09117499212922925,45.24227808945166],[-0.0911624206063749,45.2422765004706],[-0.09114984908352056,45.242274911489545],[-0.09113727756066621,45.24227332250849],[-0.09112470603781186,45.24227173352743],[-0.09111213451495753,45.242270144546374],[-0.09109956299210319,45.24226855556532],[-0.09108699146924884,45.24226696658426],[-0.0910744199463945,45.2422653776032],[-0.09106184842354015,45.24226378862215],[-0.09104927690068582,45.24226219964109],[-0.09103670537783147,45.24226061066004],[-0.09102413385497712,45.24225902167898],[-0.09101156233212278,45.242257432697926],[-0.09099899080926843,45.24225584371687],[-0.09098641928641409,45.24225425473581],[-0.09097384776355975,45.242252665754755],[-0.09096127624070541,45.2422510767737],[-0.09094870471785106,45.24224948779264],[-0.09093613319499672,45.242247898811584],[-0.09092356167214237,45.24224630983053],[-0.09091099014928802,45.24224472084947],[-0.09089841862643369,45.24224313186841],[-0.09088584710357935,45.242241542887356],[-0.090873275580725,45.2422399539063],[-0.09086070405787065,45.24223836492524],[-0.09084813253501631,45.242236775944185],[-0.09083556101216196,45.24223518696313],[-0.09082298948930763,45.24223359798207],[-0.09081041796645328,45.242232009001015],[-0.09079784644359894,45.24223042001996],[-0.09078527492074459,45.2422288310389],[-0.09077270339789024,45.242227242057844],[-0.09076013187503591,45.24222565307679],[-0.09074756035218157,45.24222406409573],[-0.09073498882932722,45.24222247511467],[-0.09072241730647287,45.242220886133616],[-0.09070984578361853,45.24221929715256],[-0.09069727426076418,45.2422177081715],[-0.09068470273790985,45.242216119190445],[-0.0906721312150555,45.24221453020939],[-0.09065955969220116,45.24221294122833],[-0.09064698816934681,45.242211352247274],[-0.09063441664649247,45.24220976326622],[-0.09062184512363812,45.24220817428516],[-0.09060927360078379,45.2422065853041],[-0.09059670207792944,45.242204996323046],[-0.0905841305550751,45.24220340734199],[-0.09057155903222075,45.24220181836094],[-0.0905589875093664,45.24220022937988],[-0.09054641598651206,45.242198640398826],[-0.09053384446365773,45.24219705141777],[-0.09052127294080338,45.24219546243671],[-0.09050870141794903,45.242193873455655],[-0.09049612989509469,45.2421922844746],[-0.09048355837224034,45.24219069549354],[-0.09047098684938601,45.242189106512484],[-0.09045841532653166,45.24218751753143],[-0.09044584380367732,45.24218592855037],[-0.09043327228082297,45.24218433956931],[-0.09042070075796863,45.242182750588256],[-0.09040812923511428,45.2421811616072],[-0.09039555771225995,45.24217957262614],[-0.0903829861894056,45.242177983645085],[-0.09037041466655125,45.24217639466403],[-0.09035784314369691,45.24217480568297],[-0.09034527162084256,45.242173216701914],[-0.09033270009798822,45.24217162772086],[-0.09032012857513388,45.2421700387398],[-0.09030755705227954,45.24216844975874],[-0.09029498552942519,45.24216686077769],[-0.09028241400657085,45.24216527179663],[-0.0902698424837165,45.24216368281557],[-0.09025727096086215,45.242162093834516],[-0.09024469943800782,45.24216050485346],[-0.09023212791515348,45.2421589158724],[-0.09021955639229913,45.242157326891345],[-0.09020698486944478,45.24215573791029],[-0.09019441334659044,45.24215414892923],[-0.09018184182373609,45.242152559948174],[-0.09016927030088176,45.24215097096712],[-0.09015669877802741,45.24214938198606],[-0.09014412725517307,45.242147793005],[-0.09013155573231872,45.242146204023946],[-0.09011898420946438,45.24214461504289],[-0.09010641268661004,45.24214302606183],[-0.0900938411637557,45.24214143708078],[-0.09008126964090135,45.242139848099725],[-0.090068698118047,45.24213825911867],[-0.09005612659519266,45.24213667013761],[-0.09004355507233831,45.242135081156555],[-0.09003098354948398,45.2421334921755],[-0.09001841202662964,45.24213190319444],[-0.09000584050377529,45.242130314213384],[-0.08999326898092094,45.24212872523233],[-0.0899806974580666,45.24212713625127],[-0.08996812593521225,45.24212554727021],[-0.08995555441235792,45.242123958289156],[-0.08994298288950357,45.2421223693081],[-0.08993041136664923,45.24212078032704],[-0.08991783984379488,45.242119191345985],[-0.08990526832094053,45.24211760236493],[-0.0898926967980862,45.24211601338387],[-0.08988012527523186,45.242114424402814],[-0.08986755375237751,45.24211283542176],[-0.08985498222952316,45.2421112464407],[-0.08984241070666882,45.24210965745964],[-0.08982983918381447,45.242108068478586],[-0.08981726766096014,45.24210647949753],[-0.0898046961381058,45.24210489051647],[-0.08979212461525145,45.242103301535415],[-0.0897795530923971,45.24210171255436],[-0.08976698156954276,45.2421001235733],[-0.08975441004668841,45.242098534592245],[-0.08974183852383408,45.24209694561119],[-0.08972926700097973,45.24209535663013],[-0.08971669547812539,45.242093767649074],[-0.08970412395527104,45.24209217866802],[-0.0896915524324167,45.24209058968696],[-0.08967898090956235,45.2420890007059],[-0.08966640938670802,45.242087411724846],[-0.08965383786385367,45.24208582274379],[-0.08964126634099932,45.24208423376273],[-0.08962869481814498,45.242082644781675],[-0.08961612329529063,45.242081055800625],[-0.08960355177243629,45.24207946681957],[-0.08959098024958195,45.24207787783851],[-0.0895784087267276,45.242076288857454],[-0.08956583720387326,45.2420746998764],[-0.0895603,45.242074],[-0.08954776304995454,45.24207228120124],[-0.0895352260999091,45.242070562402475],[-0.08952268914986365,45.24206884360371],[-0.0895101521998182,45.24206712480495],[-0.08949761524977275,45.242065406006176],[-0.08948507829972731,45.24206368720741],[-0.08947254134968186,45.24206196840865],[-0.0894600043996364,45.242060249609885],[-0.08944746744959096,45.24205853081112],[-0.08943493049954551,45.24205681201236],[-0.08942239354950006,45.242055093213594],[-0.08940985659945462,45.24205337441483],[-0.08939731964940917,45.24205165561606],[-0.08938478269936372,45.242049936817295],[-0.08937224574931826,45.24204821801853],[-0.08935970879927282,45.24204649921977],[-0.08934717184922737,45.242044780421004],[-0.08933463489918192,45.24204306162224],[-0.08932209794913648,45.24204134282348],[-0.08930956099909103,45.24203962402471],[-0.08929702404904558,45.24203790522594],[-0.08928448709900014,45.24203618642718],[-0.08927195014895468,45.242034467628415],[-0.08925941319890923,45.24203274882965],[-0.08924687624886378,45.24203103003089],[-0.08923433929881834,45.24202931123212],[-0.08922180234877289,45.24202759243336],[-0.08920926539872744,45.242025873634596],[-0.089196728448682,45.242024154835825],[-0.08918419149863654,45.24202243603706],[-0.08917165454859109,45.2420207172383],[-0.08915911759854565,45.242018998439534],[-0.0891465806485002,45.24201727964077],[-0.08913404369845475,45.242015560842006],[-0.0891215067484093,45.24201384204324],[-0.08910896979836386,45.24201212324448],[-0.0890964328483184,45.24201040444571],[-0.08908389589827295,45.242008685646944],[-0.08907135894822751,45.24200696684818],[-0.08905882199818206,45.242005248049416],[-0.08904628504813661,45.24200352925065],[-0.08903374809809117,45.24200181045189],[-0.08902121114804572,45.242000091653125],[-0.08900867419800026,45.24199837285436],[-0.08899613724795481,45.2419966540556],[-0.08898360029790937,45.24199493525683],[-0.08897106334786392,45.24199321645806],[-0.08895852639781847,45.2419914976593],[-0.08894598944777303,45.241989778860535],[-0.08893345249772758,45.24198806006177],[-0.08892091554768213,45.24198634126301],[-0.08890837859763669,45.241984622464244],[-0.08889584164759123,45.24198290366548],[-0.08888330469754578,45.24198118486671],[-0.08887076774750033,45.241979466067946],[-0.08885823079745489,45.24197774726918],[-0.08884569384740944,45.24197602847042],[-0.08883315689736399,45.241974309671654],[-0.08882061994731855,45.24197259087289],[-0.0888080829972731,45.24197087207413],[-0.08879554604722764,45.24196915327536],[-0.0887830090971822,45.24196743447659],[-0.08877047214713675,45.24196571567783],[-0.0887579351970913,45.241963996879065],[-0.08874539824704585,45.2419622780803],[-0.0887328612970004,45.24196055928154],[-0.08872032434695495,45.24195884048277],[-0.0887077873969095,45.24195712168401],[-0.08869525044686406,45.241955402885246],[-0.0886945,45.2419553],[-0.08868195350833764,45.241953616144244],[-0.0886694070166753,45.24195193228849],[-0.08865686052501295,45.24195024843274],[-0.08864431403335062,45.24194856457698],[-0.08863176754168826,45.24194688072122],[-0.08861922105002591,45.241945196865466],[-0.08860667455836357,45.24194351300971],[-0.08859412806670122,45.24194182915395],[-0.08858158157503888,45.2419401452982],[-0.08856903508337653,45.241938461442444],[-0.08855648859171418,45.24193677758669],[-0.08854394210005184,45.24193509373093],[-0.08853139560838949,45.24193340987517],[-0.08851884911672715,45.24193172601942],[-0.0885063026250648,45.241930042163666],[-0.08849375613340245,45.24192835830791],[-0.08848120964174011,45.24192667445215],[-0.08846866315007776,45.241924990596395],[-0.0884561166584154,45.241923306740645],[-0.08844357016675307,45.24192162288489],[-0.08843102367509072,45.24191993902913],[-0.08841847718342838,45.241918255173374],[-0.08840593069176603,45.24191657131762],[-0.08839338420010368,45.24191488746186],[-0.08838083770844134,45.24191320360611],[-0.08836829121677899,45.24191151975035],[-0.08835574472511665,45.241909835894596],[-0.0883431982334543,45.24190815203884],[-0.08833065174179194,45.24190646818308],[-0.0883181052501296,45.24190478432733],[-0.08830555875846725,45.241903100471575],[-0.08829301226680492,45.24190141661582],[-0.08828046577514256,45.24189973276006],[-0.0882683,45.2418981],[-0.08825718338231,45.24189367167702],[-0.08824606676462003,45.24188924335404],[-0.08823495014693004,45.24188481503106],[-0.08822383352924007,45.241880386708075],[-0.08821271691155008,45.241875958385094],[-0.08820160029386011,45.24187153006212],[-0.0881955,45.2418691],[-0.08818650960025179,45.24186271208439],[-0.08817751920050357,45.24185632416878],[-0.08816852880075536,45.24184993625317],[-0.08815953840100715,45.241843548337556],[-0.08815054800125893,45.24183716042195],[-0.0881423,45.2418313],[-0.08813780717245047,45.24182288154572],[-0.08813331434490092,45.241814463091444],[-0.08812882151735138,45.241806044637165],[-0.08812432868980184,45.24179762618289],[-0.0881198358622523,45.24178920772861],[-0.08811534303470275,45.24178078927433],[-0.0881122,45.2417749],[-0.08811171988008985,45.24176591314015],[-0.08811123976017969,45.24175692628029],[-0.08811075964026954,45.241747939420435],[-0.0881102795203594,45.241738952560574],[-0.08810979940044923,45.24172996570072],[-0.08810931928053908,45.24172097884086],[-0.08810883916062894,45.241711991981006],[-0.08810835904071877,45.241703005121146],[-0.0881083,45.2417019],[-0.08811299814588654,45.24169353730032],[-0.08811769629177307,45.24168517460065],[-0.08812239443765961,45.241676811900966],[-0.08812709258354615,45.24166844920129],[-0.08813179072943268,45.24166008650161],[-0.08813648887531922,45.24165172380194],[-0.08814118702120574,45.241643361102255],[-0.08814588516709228,45.241634998402574],[-0.0881483,45.2416307],[-0.08815805206915829,45.241624892458816],[-0.08816780413831657,45.24161908491763],[-0.08817755620747486,45.241613277376445],[-0.08818730827663314,45.24160746983526],[-0.08819706034579143,45.24160166229407],[-0.08820681241494971,45.241595854752894],[-0.088216564484108,45.24159004721171],[-0.08822631655326628,45.24158423967052],[-0.0882331,45.2415802],[-0.08824516103642283,45.241577240786604],[-0.08825722207284567,45.24157428157321],[-0.0882692831092685,45.24157132235981],[-0.08828134414569133,45.24156836314641],[-0.08829340518211416,45.24156540393301],[-0.08830546621853701,45.24156244471961],[-0.08831752725495984,45.241559485506215],[-0.08832958829138267,45.24155652629282],[-0.0883407,45.2415538],[-0.08835347211089167,45.2415537526257],[-0.08836624422178335,45.2415537052514],[-0.08837901633267503,45.241553657877105],[-0.0883917884435667,45.241553610502805],[-0.08840456055445838,45.241553563128505],[-0.08841733266535005,45.241553515754205],[-0.08843010477624173,45.24155346837991],[-0.08844287688713341,45.24155342100561],[-0.08845564899802509,45.24155337363131],[-0.08846842110891676,45.24155332625701],[-0.08848119321980843,45.24155327888271],[-0.08849396533070011,45.24155323150842],[-0.08850673744159179,45.24155318413412],[-0.08851950955248347,45.24155313675982],[-0.08853228166337515,45.24155308938552],[-0.08854505377426683,45.241553042011226],[-0.0885578258851585,45.241552994636926],[-0.08857059799605017,45.241552947262626],[-0.08858337010694185,45.241552899888326],[-0.08859614221783353,45.241552852514026],[-0.08860891432872521,45.24155280513973],[-0.08862168643961689,45.24155275776543],[-0.08863445855050855,45.24155271039113],[-0.08864723066140023,45.24155266301683],[-0.08866000277229191,45.24155261564254],[-0.08867277488318359,45.24155256826824],[-0.08868554699407527,45.24155252089394],[-0.08869831910496695,45.24155247351964],[-0.08871109121585863,45.24155242614535],[-0.0887238633267503,45.24155237877105],[-0.08873663543764197,45.24155233139675],[-0.0887451,45.2415523],[-0.08875784754667382,45.24155285956961],[-0.08877059509334766,45.241553419139215],[-0.08878334264002148,45.24155397870882],[-0.0887960901866953,45.24155453827843],[-0.08880883773336914,45.241555097848035],[-0.08882158528004297,45.24155565741765],[-0.0888343328267168,45.241556216987256],[-0.08884708037339063,45.24155677655686],[-0.08885982792006446,45.24155733612647],[-0.08887257546673828,45.241557895696076],[-0.08888532301341212,45.24155845526568],[-0.08889807056008595,45.24155901483529],[-0.08891081810675978,45.241559574404896],[-0.08892356565343361,45.2415601339745],[-0.08893631320010743,45.24156069354411],[-0.08894906074678127,45.241561253113716],[-0.0889618082934551,45.24156181268333],[-0.08897455584012892,45.241562372252936],[-0.08898730338680276,45.24156293182254],[-0.08900005093347658,45.24156349139215],[-0.08901279848015041,45.241564050961756],[-0.08902554602682425,45.24156461053136],[-0.08903829357349807,45.24156517010097],[-0.0890510411201719,45.241565729670576],[-0.08906378866684574,45.24156628924018],[-0.08907653621351956,45.24156684880979],[-0.08908928376019339,45.241567408379396],[-0.08910203130686722,45.24156796794901],[-0.08911477885354105,45.241568527518616],[-0.08912752640021487,45.24156908708822],[-0.08914027394688871,45.24156964665783],[-0.08915302149356254,45.241570206227436],[-0.08916576904023636,45.24157076579704],[-0.0891785165869102,45.24157132536665],[-0.08919126413358403,45.241571884936256],[-0.08920401168025785,45.24157244450586],[-0.08921675922693169,45.24157300407547],[-0.08922950677360551,45.241573563645076],[-0.08924225432027935,45.24157412321469],[-0.08925500186695318,45.2415746827843],[-0.089267749413627,45.2415752423539],[-0.08928049696030084,45.24157580192351],[-0.08929324450697466,45.24157636149312],[-0.08930599205364849,45.24157692106272],[-0.08931873960032233,45.24157748063233],[-0.08933148714699615,45.24157804020194],[-0.08934423469366998,45.24157859977154],[-0.08935698224034382,45.24157915934115],[-0.08936972978701764,45.24157971891076],[-0.08938247733369147,45.24158027848037],[-0.0893952248803653,45.24158083804998],[-0.08940797242703913,45.24158139761958],[-0.08942071997371295,45.24158195718919],[-0.08943346752038679,45.2415825167588],[-0.08944621506706062,45.2415830763284],[-0.08945896261373444,45.24158363589801],[-0.08947171016040828,45.24158419546762],[-0.0894844577070821,45.24158475503722],[-0.08949720525375593,45.24158531460683],[-0.08950995280042977,45.24158587417644],[-0.08952270034710359,45.24158643374605],[-0.08953544789377743,45.24158699331566],[-0.08954819544045126,45.241587552885264],[-0.08956094298712508,45.24158811245487],[-0.08957369053379892,45.24158867202448],[-0.08958643808047274,45.241589231594084],[-0.08959918562714657,45.24158979116369],[-0.08961193317382041,45.2415903507333],[-0.08962468072049423,45.241590910302904],[-0.08963742826716806,45.24159146987251],[-0.0896501758138419,45.241592029442124],[-0.08966292336051572,45.24159258901173],[-0.08967567090718954,45.24159314858134],[-0.08968841845386338,45.241593708150944],[-0.08970116600053721,45.24159426772055],[-0.08971391354721103,45.24159482729016],[-0.08972666109388487,45.241595386859764],[-0.0897394086405587,45.24159594642937],[-0.08975215618723252,45.24159650599898],[-0.08976490373390636,45.241597065568584],[-0.08977765128058018,45.24159762513819],[-0.08979039882725401,45.241598184707804],[-0.08980314637392785,45.24159874427741],[-0.08981589392060167,45.24159930384702],[-0.0898286414672755,45.241599863416624],[-0.08984138901394934,45.24160042298623],[-0.08985413656062316,45.24160098255584],[-0.089866884107297,45.241601542125444],[-0.08987963165397082,45.24160210169505],[-0.08989237920064465,45.24160266126466],[-0.08990512674731849,45.241603220834264],[-0.08991787429399231,45.24160378040387],[-0.08993062184066614,45.241604339973485],[-0.08994336938733997,45.24160489954309],[-0.0899561169340138,45.2416054591127],[-0.08996886448068762,45.241606018682305],[-0.08998161202736146,45.24160657825191],[-0.08999435957403529,45.24160713782152],[-0.09000710712070911,45.241607697391125],[-0.09001985466738295,45.24160825696073],[-0.09003260221405678,45.24160881653034],[-0.0900453497607306,45.241609376099944],[-0.09005809730740444,45.24160993566955],[-0.09007084485407826,45.241610495239165],[-0.09008359240075209,45.24161105480877],[-0.0900869,45.2416112],[-0.09009965359165947,45.24161168661878],[-0.09011240718331896,45.24161217323757],[-0.09012516077497844,45.24161265985635],[-0.09013791436663793,45.24161314647513],[-0.0901506679582974,45.24161363309391],[-0.0901634215499569,45.2416141197127],[-0.09017617514161637,45.24161460633148],[-0.09018892873327584,45.24161509295026],[-0.09020168232493533,45.24161557956905],[-0.09021443591659481,45.24161606618783],[-0.0902271895082543,45.24161655280661],[-0.09023994309991377,45.24161703942539],[-0.09025269669157325,45.24161752604418],[-0.09026545028323274,45.24161801266296],[-0.09027820387489222,45.24161849928174],[-0.0902909574665517,45.24161898590053],[-0.09030371105821118,45.24161947251931],[-0.09031646464987067,45.24161995913809],[-0.09032921824153015,45.24162044575687],[-0.09034197183318962,45.24162093237566],[-0.09035472542484911,45.24162141899444],[-0.09036747901650859,45.24162190561322],[-0.09038023260816808,45.24162239223201],[-0.09039298619982755,45.24162287885079],[-0.09040573979148704,45.24162336546957],[-0.09041849338314652,45.24162385208835],[-0.09043124697480599,45.24162433870714],[-0.09044400056646548,45.24162482532592],[-0.09045675415812496,45.2416253119447],[-0.09046950774978445,45.24162579856349],[-0.09048226134144392,45.24162628518227],[-0.0904950149331034,45.24162677180105],[-0.09050776852476289,45.24162725841983],[-0.0905141,45.2416275],[-0.09052686291811325,45.2416271552835],[-0.0905396258362265,45.241626810567006],[-0.09055238875433975,45.24162646585051],[-0.090565151672453,45.24162612113401],[-0.09057791459056626,45.241625776417514],[-0.0905906775086795,45.24162543170102],[-0.09060344042679275,45.24162508698452],[-0.090616203344906,45.24162474226802],[-0.09062896626301925,45.241624397551526],[-0.0906417291811325,45.24162405283503],[-0.09065449209924575,45.24162370811853],[-0.0906659,45.2416234],[-0.09067801701709609,45.2416205564097],[-0.09069013403419218,45.2416177128194],[-0.09070225105128829,45.241614869229096],[-0.09071436806838439,45.241612025638794],[-0.09072648508548048,45.24160918204849],[-0.09073860210257657,45.24160633845819],[-0.09075071911967267,45.24160349486789],[-0.09076283613676878,45.24160065127759],[-0.09077495315386487,45.24159780768728],[-0.09078707017096097,45.241594964096976],[-0.0907899,45.2415943],[-0.09079977797116216,45.24158859893302],[-0.09080965594232432,45.24158289786603],[-0.09081953391348647,45.24157719679905],[-0.09082941188464862,45.24157149573207],[-0.09083928985581077,45.24156579466508],[-0.09084916782697293,45.241560093598096],[-0.09085904579813509,45.241554392531114],[-0.09086892376929724,45.241548691464125],[-0.0908748,45.2415453],[-0.09088174626663216,45.2415377530799],[-0.09088869253326433,45.241530206159815],[-0.09089563879989648,45.24152265923972],[-0.09090258506652864,45.241515112319625],[-0.09090953133316079,45.24150756539954],[-0.09091647759979296,45.24150001847944],[-0.09092342386642512,45.24149247155935],[-0.09093037013305727,45.24148492463926],[-0.09093731639968942,45.241477377719164],[-0.09094426266632159,45.24146983079907],[-0.0909465,45.2414674],[-0.09095175149176926,45.24145920213473],[-0.09095700298353854,45.24145100426945],[-0.0909622544753078,45.24144280640418],[-0.09096750596707708,45.2414346085389],[-0.09097275745884634,45.24142641067363],[-0.0909780089506156,45.241418212808355],[-0.09098326044238488,45.241410014943085],[-0.09098851193415414,45.24140181707781],[-0.09099376342592341,45.24139361921254],[-0.09099901491769267,45.24138542134726],[-0.09100426640946194,45.24137722348199],[-0.09100951790123121,45.24136902561671],[-0.09101476939300047,45.24136082775144],[-0.09102002088476975,45.241352629886165],[-0.09102527237653901,45.241344432020895],[-0.09103052386830827,45.241336234155625],[-0.09103577536007755,45.24132803629035],[-0.09104102685184681,45.24131983842508],[-0.09104627834361609,45.2413116405598],[-0.09105152983538535,45.24130344269453],[-0.09105678132715463,45.24129524482925],[-0.09106203281892389,45.24128704696398],[-0.09106728431069315,45.241278849098705],[-0.09107253580246243,45.241270651233435],[-0.09107778729423169,45.24126245336816],[-0.09108303878600096,45.24125425550289],[-0.09108829027777023,45.24124605763761],[-0.09109354176953949,45.24123785977234],[-0.09109879326130876,45.24122966190706],[-0.09110404475307803,45.24122146404179],[-0.0911092962448473,45.241213266176516],[-0.09111454773661656,45.241205068311245],[-0.09111979922838583,45.241196870445975],[-0.0911250507201551,45.2411886725807],[-0.09113030221192436,45.24118047471543],[-0.09113555370369364,45.24117227685015],[-0.0911408051954629,45.24116407898488],[-0.09114605668723216,45.2411558811196],[-0.09115130817900144,45.24114768325433],[-0.0911565596707707,45.241139485389056],[-0.09116181116253998,45.241131287523785],[-0.0911627,45.2411299],[-0.09116826710207884,45.241121806057734],[-0.09117383420415769,45.24111371211547],[-0.09117940130623653,45.24110561817321],[-0.09118496840831537,45.241097524230945],[-0.09119053551039422,45.24108943028868],[-0.09119610261247306,45.24108133634642],[-0.0912016697145519,45.241073242404156],[-0.09120723681663075,45.24106514846189],[-0.09121280391870959,45.24105705451963],[-0.09121837102078843,45.241048960577366],[-0.09122393812286728,45.2410408666351],[-0.09122950522494612,45.24103277269284],[-0.09123507232702496,45.24102467875058],[-0.0912406394291038,45.241016584808314],[-0.09124620653118265,45.24100849086605],[-0.0912517736332615,45.24100039692379],[-0.09125734073534034,45.24099230298153],[-0.09126290783741918,45.24098420903927],[-0.09126847493949802,45.240976115097006],[-0.09127404204157687,45.24096802115474],[-0.09127960914365571,45.24095992721248],[-0.09128517624573455,45.240951833270216],[-0.0912907433478134,45.24094373932795],[-0.09129631044989224,45.24093564538569],[-0.09130187755197108,45.24092755144343],[-0.09130744465404993,45.240919457501164],[-0.09131301175612877,45.2409113635589],[-0.09131857885820761,45.24090326961664],[-0.09132414596028646,45.240895175674375],[-0.0913297130623653,45.24088708173211],[-0.09133528016444414,45.24087898778985],[-0.09134084726652299,45.240870893847585],[-0.09134641436860183,45.24086279990532],[-0.09135198147068067,45.24085470596306],[-0.09135754857275952,45.240846612020796],[-0.09136311567483836,45.24083851807853],[-0.0913686827769172,45.24083042413627],[-0.09137424987899605,45.24082233019401],[-0.09137981698107489,45.240814236251744],[-0.09138538408315375,45.24080614230948],[-0.09139095118523259,45.24079804836722],[-0.09139651828731143,45.240789954424955],[-0.09140208538939028,45.24078186048269],[-0.09140765249146912,45.24077376654043],[-0.09141321959354796,45.240765672598165],[-0.09141878669562681,45.2407575786559],[-0.09142435379770565,45.24074948471364],[-0.0914299208997845,45.240741390771376],[-0.09143548800186334,45.24073329682911],[-0.09144105510394218,45.24072520288686],[-0.09144662220602102,45.240717108944594],[-0.09145218930809987,45.24070901500233],[-0.09145775641017871,45.24070092106007],[-0.09146332351225755,45.240692827117805],[-0.0914688906143364,45.24068473317554],[-0.09147445771641524,45.24067663923328],[-0.09148002481849409,45.240668545291015],[-0.09148559192057293,45.24066045134875],[-0.09149115902265177,45.24065235740649],[-0.09149672612473062,45.240644263464226],[-0.09150229322680946,45.24063616952196],[-0.0915078603288883,45.2406280755797],[-0.09151342743096715,45.24061998163744],[-0.09151899453304599,45.240611887695174],[-0.09152456163512483,45.24060379375291],[-0.09153012873720368,45.24059569981065],[-0.09153569583928252,45.240587605868384],[-0.09154126294136136,45.24057951192612],[-0.0915468300434402,45.24057141798386],[-0.0915498,45.2405671],[-0.09155504916192002,45.24055890141851],[-0.09156029832384004,45.24055070283703],[-0.09156554748576005,45.24054250425554],[-0.09157079664768006,45.24053430567405],[-0.09157604580960008,45.24052610709256],[-0.0915812949715201,45.24051790851108],[-0.09158654413344011,45.24050970992959],[-0.09159179329536013,45.2405015113481],[-0.09159704245728015,45.24049331276662],[-0.09160229161920017,45.24048511418513],[-0.09160754078112017,45.240476915603644],[-0.09161278994304019,45.240468717022154],[-0.0916180391049602,45.24046051844066],[-0.09162328826688022,45.24045231985918],[-0.09162853742880024,45.24044412127769],[-0.09163378659072026,45.24043592269621],[-0.09163903575264028,45.24042772411472],[-0.0916411,45.2404245],[-0.09164501343886794,45.24041593935248],[-0.09164892687773589,45.24040737870496],[-0.09165284031660383,45.24039881805743],[-0.09165675375547178,45.240390257409906],[-0.09166066719433971,45.240381696762384],[-0.09166458063320766,45.24037313611486],[-0.0916684940720756,45.24036457546734],[-0.09167240751094355,45.24035601481982],[-0.09167632094981149,45.24034745417229],[-0.0916795,45.2403405],[-0.09168052973088738,45.24033153606061],[-0.09168155946177475,45.240322572121215],[-0.09168258919266213,45.24031360818183],[-0.0916836189235495,45.240304644242435],[-0.09168464865443687,45.24029568030304],[-0.09168567838532425,45.24028671636365],[-0.09168670811621163,45.240277752424255],[-0.0916873,45.2402726],[-0.09168565937615258,45.240263681289505],[-0.09168401875230517,45.24025476257902],[-0.09168237812845777,45.24024584386853],[-0.09168073750461035,45.24023692515804],[-0.09167909688076294,45.24022800644755],[-0.09167745625691552,45.24021908773706],[-0.09167581563306812,45.24021016902657],[-0.0916741750092207,45.240201250316076],[-0.09167253438537329,45.24019233160559],[-0.09167089376152587,45.2401834128951],[-0.09166925313767847,45.24017449418461],[-0.0916685,45.2401704],[-0.09166290297509865,45.24016231632034],[-0.09165730595019729,45.24015423264068],[-0.09165170892529592,45.24014614896102],[-0.09164611190039457,45.24013806528136],[-0.09164051487549321,45.2401299816017],[-0.09163491785059186,45.24012189792204],[-0.0916293208256905,45.24011381424238],[-0.09162372380078913,45.24010573056272],[-0.09161812677588778,45.24009764688306],[-0.09161252975098642,45.2400895632034],[-0.09160693272608507,45.24008147952374],[-0.09160133570118371,45.24007339584408],[-0.0916003,45.2400719],[-0.09159208081818895,45.24006501643523],[-0.09158386163637791,45.240058132870466],[-0.09157564245456688,45.2400512493057],[-0.09156742327275584,45.24004436574093],[-0.0915592040909448,45.24003748217616],[-0.09155098490913376,45.2400305986114],[-0.09154276572732271,45.24002371504663],[-0.09153454654551167,45.24001683148187],[-0.09152632736370064,45.2400099479171],[-0.0915181081818896,45.24000306435234],[-0.09150988900007856,45.239996180787564],[-0.09150166981826752,45.2399892972228],[-0.0914963,45.2399848],[-0.09148521541629372,45.239980332514435],[-0.09147413083258743,45.239975865028875],[-0.09146304624888113,45.23997139754331],[-0.09145196166517484,45.23996693005775],[-0.09144087708146856,45.23996246257218],[-0.09142979249776227,45.23995799508661],[-0.09141870791405599,45.23995352760105],[-0.09140762333034969,45.239949060115485],[-0.0913965387466434,45.239944592629925],[-0.09138545416293711,45.23994012514436],[-0.09137436957923083,45.23993565765879],[-0.09136328499552454,45.23993119017323],[-0.09135220041181824,45.23992672268766],[-0.09134111582811195,45.2399222552021],[-0.09133003124440567,45.239917787716536],[-0.09131894666069938,45.23991332023097],[-0.0913078620769931,45.23990885274541],[-0.0912967774932868,45.23990438525984],[-0.09128569290958051,45.23989991777428],[-0.09127460832587422,45.239895450288714],[-0.09126352374216794,45.239890982803146],[-0.09125243915846165,45.239886515317586],[-0.09124135457475537,45.23988204783202],[-0.09123026999104906,45.23987758034646],[-0.09121918540734278,45.23987311286089],[-0.09120810082363649,45.239868645375324],[-0.0911970162399302,45.239864177889764],[-0.09118593165622392,45.2398597104042],[-0.09117484707251762,45.23985524291864],[-0.0911735,45.2398547],[-0.09116239624167324,45.23985025622073],[-0.09115129248334647,45.23984581244145],[-0.09114018872501971,45.239841368662184],[-0.09112908496669293,45.23983692488291],[-0.09111798120836617,45.23983248110363],[-0.0911068774500394,45.23982803732436],[-0.09109577369171264,45.23982359354508],[-0.09108466993338586,45.23981914976581],[-0.0910735661750591,45.23981470598654],[-0.09106246241673233,45.239810262207264],[-0.09105135865840557,45.23980581842799],[-0.09104025490007879,45.239801374648714],[-0.09102915114175203,45.23979693086944],[-0.09101804738342525,45.23979248709016],[-0.0910069436250985,45.239788043310895],[-0.09099583986677172,45.23978359953162],[-0.09098473610844496,45.239779155752345],[-0.09097363235011818,45.23977471197307],[-0.09096252859179142,45.239770268193794],[-0.09095142483346465,45.239765824414526],[-0.09094032107513789,45.23976138063525],[-0.09092921731681113,45.239756936855976],[-0.09091811355848435,45.2397524930767],[-0.09090700980015759,45.239748049297425],[-0.09089590604183082,45.23974360551815],[-0.09088480228350405,45.23973916173888],[-0.09087369852517728,45.23973471795961],[-0.09086259476685052,45.23973027418033],[-0.09085149100852374,45.239725830401056],[-0.09084038725019698,45.23972138662178],[-0.09082928349187021,45.239716942842506],[-0.09081817973354345,45.23971249906324],[-0.09080707597521667,45.23970805528396],[-0.09079597221688991,45.23970361150469],[-0.09078486845856314,45.23969916772541],[-0.0907832,45.2396985],[-0.09077152014590774,45.239694861443226],[-0.09075984029181548,45.23969122288645],[-0.09074816043772321,45.23968758432967],[-0.09073648058363096,45.239683945772896],[-0.0907248007295387,45.23968030721612],[-0.09071312087544645,45.23967666865934],[-0.09070144102135418,45.239673030102566],[-0.09068976116726192,45.23966939154579],[-0.09067808131316966,45.23966575298901],[-0.09066640145907741,45.239662114432235],[-0.09065472160498514,45.23965847587546],[-0.0906487,45.2396566],[-0.09063594408873732,45.239657049327604],[-0.09062318817747463,45.2396574986552],[-0.09061043226621195,45.2396579479828],[-0.09059767635494927,45.23965839731039],[-0.09058492044368659,45.239658846637994],[-0.0905721645324239,45.239659295965595],[-0.09055940862116121,45.23965974529319],[-0.09054665270989853,45.23966019462079],[-0.09053389679863585,45.23966064394839],[-0.09052114088737316,45.239661093275984],[-0.09050838497611048,45.239661542603585],[-0.0904956290648478,45.23966199193118],[-0.0904954,45.239662],[-0.09048481930462245,45.239667036936595],[-0.09047423860924489,45.23967207387319],[-0.09046365791386733,45.23967711080978],[-0.09045307721848977,45.23968214774637],[-0.09044249652311222,45.239687184682964],[-0.09043191582773466,45.239692221619556],[-0.09042133513235709,45.239697258556156],[-0.09041075443697953,45.23970229549275],[-0.09040017374160197,45.23970733242934],[-0.09038959304622442,45.23971236936593],[-0.09037901235084686,45.239717406302525],[-0.0903684316554693,45.23972244323912],[-0.09035785096009175,45.23972748017571],[-0.09034727026471419,45.2397325171123],[-0.09033668956933663,45.239737554048894],[-0.0903263,45.2397425],[-0.09031514065163161,45.239746874199255],[-0.09030398130326321,45.23975124839851],[-0.09029282195489483,45.23975562259777],[-0.09028166260652644,45.23975999679703],[-0.09027050325815805,45.239764370996284],[-0.09025934390978965,45.23976874519553],[-0.09024818456142127,45.23977311939479],[-0.09023702521305288,45.23977749359405],[-0.09022586586468449,45.239781867793305],[-0.09021470651631609,45.23978624199256],[-0.0902035471679477,45.23979061619182],[-0.09019238781957932,45.239794990391076],[-0.09018122847121093,45.23979936459033],[-0.09017006912284253,45.23980373878959],[-0.09015890977447415,45.23980811298885],[-0.09014775042610576,45.239812487188104],[-0.09013659107773736,45.23981686138736],[-0.09012543172936897,45.23982123558661],[-0.09011427238100059,45.23982560978587],[-0.0901031130326322,45.239829983985125],[-0.0900919536842638,45.23983435818438],[-0.09008079433589541,45.23983873238364],[-0.09006963498752703,45.239843106582896],[-0.09005847563915864,45.23984748078215],[-0.09004731629079024,45.23985185498141],[-0.09003615694242185,45.23985622918067],[-0.09002499759405347,45.239860603379924],[-0.09001383824568508,45.23986497757918],[-0.09000267889731668,45.23986935177844],[-0.0899915195489483,45.23987372597769],[-0.0899898,45.2398744],[-0.08997737494186578,45.23987648165118],[-0.08996494988373155,45.239878563302355],[-0.08995252482559733,45.23988064495354],[-0.08994009976746312,45.23988272660472],[-0.0899276747093289,45.2398848082559],[-0.08991524965119467,45.239886889907076],[-0.08990282459306045,45.23988897155826],[-0.08989039953492624,45.23989105320944],[-0.08987797447679202,45.239893134860615],[-0.08986554941865779,45.2398952165118],[-0.08985312436052358,45.23989729816298],[-0.08984069930238936,45.239899379814155],[-0.08982827424425513,45.23990146146534],[-0.08981584918612091,45.23990354311652],[-0.0898034241279867,45.2399056247677],[-0.0897982,45.2399065],[-0.08978543180533992,45.239906282874344],[-0.08977266361067983,45.23990606574869],[-0.08975989541601975,45.23990584862304],[-0.08974712722135966,45.239905631497386],[-0.08973435902669959,45.239905414371734],[-0.0897215908320395,45.23990519724608],[-0.08970882263737942,45.23990498012042],[-0.08969605444271933,45.23990476299477],[-0.08968328624805925,45.239904545869116],[-0.08967051805339918,45.239904328743464],[-0.08965774985873909,45.23990411161781],[-0.08964498166407901,45.23990389449216],[-0.08963221346941892,45.239903677366506],[-0.08961944527475885,45.23990346024085],[-0.08960667708009876,45.2399032431152],[-0.08959390888543868,45.23990302598955],[-0.0895865,45.2399029],[-0.08957429994244961,45.239900239103235],[-0.08956209988489924,45.239897578206474],[-0.08954989982734886,45.23989491730971],[-0.08953769976979849,45.23989225641295],[-0.0895254997122481,45.23988959551619],[-0.08951329965469773,45.23988693461942],[-0.08950109959714735,45.23988427372266],[-0.08948889953959696,45.2398816128259],[-0.08947669948204659,45.239878951929136],[-0.0894644994244962,45.239876291032374],[-0.08945229936694583,45.23987363013561],[-0.08944009930939545,45.23987096923885],[-0.08942789925184508,45.23986830834209],[-0.08941569919429469,45.23986564744533],[-0.08940349913674431,45.239862986548566],[-0.08939129907919394,45.2398603256518],[-0.08937909902164355,45.239857664755036],[-0.08936689896409318,45.239855003858274],[-0.0893546989065428,45.23985234296151],[-0.089349,45.2398511],[-0.08933842586243997,45.23984605621946],[-0.08932785172487993,45.239841012438916],[-0.0893172775873199,45.239835968658376],[-0.08930670344975987,45.239830924877836],[-0.08929612931219984,45.23982588109729],[-0.0892855551746398,45.23982083731675],[-0.08927498103707979,45.2398157935362],[-0.08926440689951975,45.23981074975566],[-0.08925383276195972,45.23980570597512],[-0.08924325862439969,45.239800662194575],[-0.08923268448683966,45.239795618414036],[-0.08922211034927963,45.239790574633496],[-0.0892115362117196,45.23978553085295],[-0.08920096207415956,45.23978048707241],[-0.08919038793659953,45.23977544329187],[-0.0891798137990395,45.23977039951132],[-0.0891708,45.2397661],[-0.0891623302308437,45.23975936876241],[-0.08915386046168741,45.23975263752481],[-0.08914539069253112,45.23974590628722],[-0.08913692092337483,45.23973917504963],[-0.08912845115421854,45.23973244381204],[-0.08911998138506226,45.23972571257444],[-0.08911151161590597,45.23971898133685],[-0.08910304184674968,45.23971225009926],[-0.08909457207759339,45.23970551886166],[-0.0890861023084371,45.23969878762407],[-0.0890776325392808,45.23969205638648],[-0.08906916277012451,45.23968532514888],[-0.08906069300096822,45.23967859391129],[-0.08905222323181193,45.2396718626737],[-0.08904375346265564,45.23966513143611],[-0.08903528369349936,45.239658400198515],[-0.08902681392434307,45.239651668960924],[-0.0890188,45.2396453],[-0.08901176509404954,45.2396377940066],[-0.08900473018809908,45.239630288013196],[-0.08899769528214864,45.239622782019794],[-0.08899066037619818,45.23961527602639],[-0.08898362547024773,45.23960777003299],[-0.08897659056429727,45.23960026403958],[-0.08896955565834683,45.23959275804618],[-0.08896252075239637,45.23958525205278],[-0.08895548584644591,45.239577746059375],[-0.08894845094049546,45.23957024006597],[-0.088941416034545,45.23956273407257],[-0.08893438112859456,45.23955522807917],[-0.0889292,45.2395497],[-0.08892535667794678,45.23954112363048],[-0.08892151335589356,45.239532547260964],[-0.08891767003384034,45.239523970891454],[-0.08891382671178712,45.23951539452194],[-0.0889099833897339,45.23950681815242],[-0.08890614006768068,45.239498241782904],[-0.08890229674562745,45.239489665413394],[-0.08889845342357423,45.23948108904388],[-0.08889461010152101,45.23947251267436],[-0.08889076677946779,45.239463936304844],[-0.08888692345741459,45.239455359935334],[-0.08888308013536136,45.23944678356582],[-0.08887923681330814,45.2394382071963],[-0.0888765,45.2394321],[-0.08887612945464629,45.23942311056972],[-0.08887575890929258,45.23941412113944],[-0.08887538836393886,45.239405131709155],[-0.08887501781858516,45.23939614227888],[-0.08887464727323145,45.23938715284859],[-0.08887427672787775,45.239378163418316],[-0.08887390618252403,45.23936917398803],[-0.08887353563717032,45.23936018455775],[-0.08887316509181661,45.23935119512747],[-0.08887279454646291,45.23934220569719],[-0.08887242400110919,45.23933321626691],[-0.08887205345575548,45.23932422683663],[-0.08887168291040178,45.239315237406345],[-0.0888715,45.2393108],[-0.08887432480211276,45.23930202950959],[-0.0888771496042255,45.23929325901917],[-0.08887997440633826,45.23928448852876],[-0.08888279920845102,45.23927571803835],[-0.08888562401056377,45.23926694754793],[-0.08888844881267652,45.23925817705752],[-0.08889127361478927,45.23924940656711],[-0.08889409841690202,45.2392406360767],[-0.08889692321901477,45.239231865586284],[-0.08889974802112753,45.23922309509587],[-0.08890257282324028,45.23921432460546],[-0.08890539762535303,45.239205554115046],[-0.0889068,45.2392012],[-0.08891278148194423,45.239193254044935],[-0.08891876296388845,45.23918530808987],[-0.08892474444583269,45.23917736213481],[-0.08893072592777693,45.23916941617974],[-0.08893670740972116,45.23916147022468],[-0.08894268889166539,45.23915352426962],[-0.08894867037360962,45.239145578314556],[-0.08895465185555386,45.239137632359494],[-0.0889606333374981,45.23912968640443],[-0.08896661481944232,45.23912174044937],[-0.08897259630138656,45.2391137944943],[-0.08897857778333079,45.23910584853924],[-0.08898455926527502,45.23909790258418],[-0.08899054074721925,45.239089956629115],[-0.0889951,45.2390839],[-0.08900445496299908,45.239077777469674],[-0.08901380992599815,45.23907165493935],[-0.08902316488899724,45.23906553240903],[-0.08903251985199633,45.239059409878706],[-0.0890418748149954,45.23905328734838],[-0.08905122977799448,45.23904716481806],[-0.08906058474099357,45.23904104228774],[-0.08906993970399264,45.239034919757415],[-0.08907929466699173,45.23902879722709],[-0.08908864962999082,45.23902267469676],[-0.08909800459298989,45.23901655216644],[-0.08910735955598897,45.23901042963612],[-0.08911671451898806,45.239004307105795],[-0.08912606948198713,45.23899818457547],[-0.08913542444498622,45.23899206204515],[-0.0891372,45.2389909],[-0.08914843552215096,45.23898662379381],[-0.08915967104430193,45.238982347587616],[-0.08917090656645289,45.238978071381425],[-0.08918214208860385,45.238973795175234],[-0.08919337761075483,45.23896951896904],[-0.08920461313290579,45.238965242762845],[-0.08921584865505675,45.238960966556654],[-0.08922708417720772,45.23895669035046],[-0.08923831969935868,45.23895241414427],[-0.08924955522150964,45.23894813793808],[-0.08926079074366061,45.23894386173189],[-0.08927202626581157,45.2389395855257],[-0.08928326178796253,45.23893530931951],[-0.0892944973101135,45.23893103311332],[-0.089298,45.2389297],[-0.08931047567173336,45.238927774970534],[-0.08932295134346671,45.23892584994107],[-0.08933542701520007,45.2389239249116],[-0.08934790268693343,45.23892199988214],[-0.08936037835866678,45.238920074852665],[-0.08937285403040014,45.2389181498232],[-0.08938532970213349,45.23891622479373],[-0.08939780537386685,45.23891429976427],[-0.08941028104560021,45.2389123747348],[-0.08942275671733356,45.23891044970534],[-0.08943523238906692,45.23890852467587],[-0.08944770806080028,45.238906599646405],[-0.08946018373253363,45.23890467461694],[-0.08947265940426699,45.23890274958747],[-0.08948513507600035,45.238900824558],[-0.0894976107477337,45.238898899528536],[-0.0895002,45.2388985],[-0.08951293516213792,45.2388991797066],[-0.08952567032427583,45.2388998594132],[-0.08953840548641374,45.2389005391198],[-0.08955114064855166,45.2389012188264],[-0.08956387581068957,45.238901898533],[-0.08957661097282747,45.2389025782396],[-0.08958934613496539,45.238903257946205],[-0.0896020812971033,45.23890393765281],[-0.08961481645924121,45.2389046173594],[-0.08962755162137913,45.238905297066005],[-0.08964028678351704,45.23890597677261],[-0.08965302194565496,45.23890665647921],[-0.08966575710779287,45.23890733618581],[-0.0896707,45.2389076],[-0.08968325472647548,45.238909250667554],[-0.08969580945295096,45.23891090133512],[-0.08970836417942644,45.238912552002674],[-0.08972091890590192,45.23891420267024],[-0.0897334736323774,45.238915853337794],[-0.08974602835885287,45.23891750400535],[-0.08975858308532836,45.238919154672914],[-0.08977113781180383,45.23892080534047],[-0.08978369253827931,45.23892245600803],[-0.08979624726475478,45.23892410667559],[-0.08980880199123027,45.23892575734315],[-0.08982135671770575,45.23892740801071],[-0.08983391144418122,45.238929058678266],[-0.0898464661706567,45.23893070934582],[-0.08985902089713219,45.238932360013386],[-0.08987157562360766,45.23893401068094],[-0.08988413035008314,45.238935661348506],[-0.08989668507655861,45.23893731201606],[-0.0899092398030341,45.23893896268362],[-0.08992179452950957,45.23894061335118],[-0.08993434925598505,45.23894226401874],[-0.08994690398246052,45.238943914686295],[-0.08995945870893601,45.23894556535386],[-0.08997201343541149,45.238947216021415],[-0.08998456816188696,45.23894886668898],[-0.08999712288836244,45.238950517356535],[-0.09000967761483793,45.23895216802409],[-0.0900222323413134,45.238953818691655],[-0.09003478706778888,45.23895546935921],[-0.09004734179426435,45.23895712002677],[-0.09005989652073984,45.23895877069433],[-0.09007245124721532,45.23896042136189],[-0.09008500597369079,45.23896207202945],[-0.09009756070016627,45.23896372269701],[-0.09011011542664175,45.238965373364564],[-0.09012267015311723,45.23896702403213],[-0.0901352248795927,45.238968674699684],[-0.09014777960606818,45.23897032536725],[-0.09016033433254367,45.238971976034804],[-0.09017288905901914,45.23897362670236],[-0.09018544378549462,45.238975277369924],[-0.09019799851197009,45.23897692803748],[-0.09021055323844557,45.23897857870504],[-0.09022310796492106,45.2389802293726],[-0.09023566269139653,45.23898188004016],[-0.090248217417872,45.23898353070772],[-0.09026077214434748,45.23898518137528],[-0.09027332687082297,45.23898683204283],[-0.09028588159729845,45.2389884827104],[-0.09029843632377392,45.23899013337795],[-0.0903109910502494,45.23899178404552],[-0.090321,45.2389931],[-0.0903335141143974,45.23899489714635],[-0.09034602822879478,45.23899669429269],[-0.09035854234319218,45.238998491439034],[-0.09037105645758958,45.23900028858538],[-0.09038357057198697,45.23900208573172],[-0.09039608468638437,45.239003882878066],[-0.09040859880078177,45.23900568002441],[-0.09042111291517915,45.23900747717076],[-0.09043362702957655,45.2390092743171],[-0.09044614114397395,45.239011071463445],[-0.09045865525837135,45.23901286860979],[-0.09047116937276874,45.23901466575613],[-0.09048368348716614,45.23901646290248],[-0.09049619760156354,45.23901826004882],[-0.09050871171596092,45.23902005719516],[-0.09052122583035832,45.23902185434151],[-0.09053373994475572,45.239023651487855],[-0.0905462540591531,45.239025448634195],[-0.0905587681735505,45.23902724578054],[-0.0905712822879479,45.23902904292689],[-0.09058379640234529,45.239030840073234],[-0.09059631051674269,45.23903263721957],[-0.09060882463114009,45.23903443436592],[-0.09062133874553747,45.239036231512266],[-0.09063385285993487,45.239038028658605],[-0.09064636697433227,45.23903982580495],[-0.09065888108872966,45.2390416229513],[-0.09067139520312706,45.23904342009764],[-0.09068390931752446,45.239045217243984],[-0.09069642343192186,45.23904701439033],[-0.09070893754631924,45.23904881153667],[-0.09072145166071664,45.239050608683016],[-0.09073396577511404,45.23905240582936],[-0.09074647988951143,45.23905420297571],[-0.09075899400390883,45.23905600012205],[-0.09077150811830623,45.239057797268394],[-0.09078402223270361,45.23905959441474],[-0.09079653634710101,45.23906139156108],[-0.09080905046149841,45.239063188707426],[-0.0908215645758958,45.23906498585377],[-0.0908340786902932,45.23906678300011],[-0.0908465928046906,45.23906858014646],[-0.09085910691908798,45.239070377292805],[-0.09087162103348538,45.239072174439144],[-0.09088413514788278,45.23907397158549],[-0.0908906,45.2390749],[-0.09090143531083186,45.239079660872825],[-0.09091227062166372,45.23908442174565],[-0.0909231059324956,45.23908918261848],[-0.09093394124332746,45.2390939434913],[-0.09094477655415932,45.239098704364125],[-0.09095561186499118,45.23910346523695],[-0.09096644717582306,45.23910822610978],[-0.09097728248665492,45.239112986982605],[-0.09098811779748678,45.23911774785543],[-0.09099895310831864,45.23912250872826],[-0.09100978841915051,45.239127269601084],[-0.09102062372998238,45.239132030473904],[-0.09103145904081424,45.23913679134673],[-0.0910422943516461,45.23914155221956],[-0.09105312966247797,45.239146313092384],[-0.0910597,45.2391492],[-0.09106951925168318,45.23915495080208],[-0.09107933850336636,45.23916070160417],[-0.09108915775504954,45.23916645240625],[-0.09109897700673274,45.239172203208334],[-0.09110879625841592,45.23917795401042],[-0.0911186155100991,45.239183704812504],[-0.09112843476178228,45.239189455614586],[-0.09113825401346547,45.23919520641667],[-0.09114807326514865,45.239200957218756],[-0.09115789251683183,45.23920670802084],[-0.09116771176851501,45.23921245882292],[-0.09117753102019821,45.23921820962501],[-0.09118735027188139,45.23922396042709],[-0.09119716952356458,45.23922971122917],[-0.09120698877524776,45.23923546203126],[-0.09121680802693094,45.23924121283334],[-0.09122662727861412,45.23924696363542],[-0.0912364465302973,45.239252714437505],[-0.09124626578198049,45.239258465239594],[-0.09125608503366368,45.239264216041676],[-0.09126590428534687,45.23926996684376],[-0.09127572353703005,45.239275717645846],[-0.09128554278871323,45.23928146844793],[-0.09129536204039641,45.23928721925001],[-0.0913051812920796,45.2392929700521],[-0.09131500054376278,45.23929872085418],[-0.09132481979544596,45.23930447165626],[-0.09133463904712916,45.23931022245834],[-0.09134445829881234,45.23931597326043],[-0.09135427755049552,45.23932172406251],[-0.0913640968021787,45.239327474864595],[-0.09137391605386189,45.239333225666684],[-0.09138373530554507,45.239338976468765],[-0.09139355455722825,45.23934472727085],[-0.09140337380891145,45.239350478072936],[-0.09141319306059463,45.23935622887502],[-0.09142301231227781,45.2393619796771],[-0.091432831563961,45.23936773047918],[-0.09144265081564418,45.23937348128127],[-0.09145247006732736,45.23937923208335],[-0.09146228931901054,45.23938498288543],[-0.09147210857069372,45.23939073368752],[-0.0914741,45.2393919],[-0.09148395717232402,45.239397618574856],[-0.09149381434464805,45.23940333714971],[-0.09150367151697207,45.23940905572456],[-0.09151352868929609,45.23941477429941],[-0.09152338586162011,45.23942049287427],[-0.09153324303394414,45.23942621144912],[-0.09154310020626816,45.239431930023976],[-0.09155295737859218,45.23943764859882],[-0.0915628145509162,45.23944336717368],[-0.09157267172324023,45.23944908574853],[-0.09158252889556424,45.23945480432339],[-0.09159238606788826,45.23946052289824],[-0.09160224324021228,45.23946624147309],[-0.09161210041253631,45.23947196004794],[-0.09162195758486033,45.2394776786228],[-0.09163181475718435,45.23948339719765],[-0.09164167192950838,45.23948911577251],[-0.0916515291018324,45.239494834347354],[-0.09166138627415642,45.23950055292221],[-0.09167124344648044,45.23950627149706],[-0.09168110061880447,45.23951199007192],[-0.09169095779112849,45.23951770864677],[-0.0917008149634525,45.23952342722162],[-0.09171067213577652,45.239529145796475],[-0.09172052930810055,45.23953486437133],[-0.0917249,45.2395374],[-0.09173617611858376,45.2395416230561],[-0.09174745223716751,45.239545846112186],[-0.09175872835575127,45.23955006916828],[-0.09177000447433503,45.239554292224376],[-0.0917812805929188,45.239558515280464],[-0.09179255671150256,45.23956273833656],[-0.09180383283008632,45.239566961392654],[-0.09181510894867008,45.23957118444874],[-0.09182638506725384,45.23957540750484],[-0.0918376611858376,45.23957963056093],[-0.09184893730442135,45.23958385361702],[-0.09186021342300511,45.239588076673115],[-0.09187148954158887,45.23959229972921],[-0.09188276566017264,45.2395965227853],[-0.0918940417787564,45.23960074584139],[-0.09190531789734016,45.23960496889749],[-0.09191659401592392,45.239609191953576],[-0.09192787013450768,45.23961341500967],[-0.09193914625309144,45.23961763806576],[-0.0919504223716752,45.239621861121854],[-0.09196169849025895,45.23962608417795],[-0.09197297460884271,45.23963030723404],[-0.09198425072742648,45.23963453029013],[-0.09199552684601024,45.23963875334623],[-0.092006802964594,45.239642976402315],[-0.0920074,45.2396432],[-0.09201866159077794,45.23964744226754],[-0.09202992318155588,45.239651684535076],[-0.0920411847723338,45.23965592680262],[-0.09205244636311175,45.239660169070156],[-0.09206370795388968,45.23966441133769],[-0.09207496954466762,45.23966865360523],[-0.09208623113544556,45.239672895872765],[-0.0920974927262235,45.2396771381403],[-0.09210875431700143,45.239681380407845],[-0.09212001590777937,45.23968562267538],[-0.0921312774985573,45.23968986494292],[-0.09214253908933524,45.239694107210454],[-0.09215380068011318,45.23969834947799],[-0.09216506227089111,45.239702591745534],[-0.09217632386166905,45.23970683401307],[-0.09218758545244699,45.23971107628061],[-0.09219884704322492,45.23971531854814],[-0.09221010863400286,45.23971956081568],[-0.09222137022478079,45.239723803083216],[-0.09223263181555873,45.23972804535076],[-0.09224389340633667,45.239732287618295],[-0.0922551549971146,45.23973652988583],[-0.09226641658789254,45.23974077215337],[-0.09227767817867048,45.239745014420905],[-0.09228893976944841,45.23974925668845],[-0.09230020136022635,45.239753498955984],[-0.09231146295100429,45.23975774122352],[-0.09232272454178223,45.23976198349106],[-0.09233398613256016,45.23976622575859],[-0.09234524772333809,45.23977046802613],[-0.09235650931411603,45.23977471029367],[-0.09236777090489397,45.23977895256121],[-0.0923790324956719,45.239783194828746],[-0.09239029408644985,45.23978743709628],[-0.09240155567722777,45.23979167936382],[-0.09241281726800571,45.23979592163136],[-0.0924186,45.2397981],[-0.09242970377940704,45.23980254378674],[-0.09244080755881408,45.23980698757348],[-0.09245191133822112,45.239811431360216],[-0.09246301511762815,45.23981587514696],[-0.09247411889703519,45.239820318933695],[-0.09248522267644223,45.23982476272044],[-0.09249632645584926,45.239829206507174],[-0.0925074302352563,45.23983365029391],[-0.09251853401466334,45.23983809408065],[-0.09252963779407038,45.23984253786739],[-0.09254074157347741,45.23984698165413],[-0.09255184535288445,45.23985142544087],[-0.09256294913229149,45.239855869227604],[-0.09257405291169853,45.23986031301435],[-0.09258515669110556,45.23986475680108],[-0.0925962604705126,45.239869200587826],[-0.09260736424991964,45.23987364437456],[-0.09261846802932668,45.239878088161305],[-0.09262957180873371,45.23988253194804],[-0.09264067558814075,45.23988697573478],[-0.09265177936754777,45.23989141952152],[-0.09266288314695481,45.239895863308256],[-0.09267398692636185,45.239900307095],[-0.09268509070576889,45.239904750881735],[-0.09269619448517592,45.23990919466847],[-0.09270729826458296,45.239913638455214],[-0.09271840204399,45.23991808224195],[-0.09272950582339703,45.23992252602869],[-0.09274060960280407,45.23992696981543],[-0.09275171338221111,45.23993141360217],[-0.09276281716161815,45.23993585738891],[-0.09277392094102518,45.23994030117564],[-0.09278502472043222,45.239944744962386],[-0.09279612849983926,45.23994918874912],[-0.0928072322792463,45.239953632535865],[-0.09281833605865333,45.2399580763226],[-0.09282943983806037,45.23996252010934],[-0.09284054361746741,45.23996696389608],[-0.09285164739687445,45.239971407682816],[-0.09286275117628148,45.23997585146956],[-0.09287385495568852,45.239980295256295],[-0.09288495873509556,45.23998473904304],[-0.0928960625145026,45.239989182829774],[-0.09290716629390963,45.23999362661651],[-0.09291827007331667,45.23999807040325],[-0.0929293738527237,45.24000251418999],[-0.09294047763213074,45.24000695797673],[-0.09295158141153778,45.24001140176347],[-0.09296268519094482,45.24001584555021],[-0.09297378897035186,45.24002028933695],[-0.0929848927497589,45.24002473312368],[-0.09299599652916593,45.240029176910426],[-0.0930043,45.2400325],[-0.09301552728206192,45.24003678723411],[-0.09302675456412383,45.24004107446822],[-0.09303798184618575,45.24004536170234],[-0.09304920912824767,45.240049648936456],[-0.09306043641030959,45.24005393617057],[-0.0930716636923715,45.24005822340468],[-0.09308289097443342,45.2400625106388],[-0.09309411825649534,45.24006679787291],[-0.09310534553855726,45.240071085107026],[-0.09311657282061918,45.24007537234114],[-0.0931278001026811,45.24007965957526],[-0.09313902738474301,45.24008394680937],[-0.09315025466680493,45.24008823404348],[-0.09316148194886685,45.240092521277596],[-0.09317270923092877,45.24009680851171],[-0.09318393651299069,45.24010109574583],[-0.0931951637950526,45.24010538297994],[-0.09320639107711452,45.24010967021405],[-0.09321761835917644,45.240113957448166],[-0.09322884564123836,45.240118244682286],[-0.09324007292330028,45.2401225319164],[-0.0932513002053622,45.24012681915051],[-0.09326252748742411,45.240131106384624],[-0.09327375476948603,45.240135393618736],[-0.09328498205154795,45.240139680852856],[-0.09329620933360987,45.24014396808697],[-0.09330743661567178,45.24014825532108],[-0.0933186638977337,45.240152542555194],[-0.09332989117979562,45.24015682978931],[-0.09334111846185754,45.240161117023426],[-0.09335234574391946,45.24016540425754],[-0.09336357302598138,45.24016969149165],[-0.0933748003080433,45.24017397872577],[-0.09338602759010521,45.240178265959884],[-0.09339725487216713,45.240182553193996],[-0.09340848215422905,45.24018684042811],[-0.09341970943629097,45.24019112766222],[-0.09343093671835288,45.24019541489634],[-0.0934421640004148,45.240199702130454],[-0.09345339128247672,45.240203989364566],[-0.09346461856453864,45.24020827659868],[-0.09347584584660056,45.2402125638328],[-0.09348707312866247,45.24021685106691],[-0.09349830041072439,45.240221138301024],[-0.09350952769278631,45.24022542553514],[-0.09352075497484823,45.24022971276925],[-0.09353198225691015,45.24023400000337],[-0.09354320953897206,45.24023828723748],[-0.09355443682103398,45.240242574471594],[-0.0935656641030959,45.24024686170571],[-0.09357689138515782,45.24025114893983],[-0.09358811866721974,45.24025543617394],[-0.09359934594928165,45.24025972340805],[-0.09361057323134357,45.240264010642164],[-0.09362180051340549,45.240268297876284],[-0.09363302779546741,45.2402725851104],[-0.09364425507752933,45.24027687234451],[-0.09365548235959124,45.24028115957862],[-0.09366670964165316,45.240285446812734],[-0.09367793692371508,45.240289734046854],[-0.093689164205777,45.24029402128097],[-0.09370039148783892,45.24029830851508],[-0.09371161876990083,45.24030259574919],[-0.09372284605196275,45.24030688298331],[-0.0937242,45.2403074],[-0.09373541732509805,45.24031170020061],[-0.09374663465019611,45.240316000401215],[-0.09375785197529417,45.24032030060182],[-0.09376906930039224,45.24032460080243],[-0.09378028662549029,45.24032890100304],[-0.09379150395058836,45.24033320120365],[-0.09380272127568641,45.24033750140425],[-0.09381393860078448,45.240341801604856],[-0.09382515592588253,45.240346101805464],[-0.0938363732509806,45.24035040200607],[-0.09384759057607865,45.24035470220668],[-0.09385880790117672,45.24035900240729],[-0.09387002522627477,45.240363302607896],[-0.09388124255137284,45.240367602808504],[-0.0938924598764709,45.24037190300911],[-0.09390367720156896,45.24037620320972],[-0.09391489452666701,45.24038050341033],[-0.09392611185176508,45.24038480361094],[-0.09393732917686314,45.24038910381154],[-0.0939485465019612,45.240393404012146],[-0.09395976382705926,45.240397704212754],[-0.09397098115215732,45.24040200441336],[-0.09398219847725538,45.24040630461397],[-0.09399341580235344,45.24041060481458],[-0.0940046331274515,45.240414905015186],[-0.09401585045254957,45.240419205215794],[-0.09402706777764762,45.2404235054164],[-0.09403828510274569,45.24042780561701],[-0.09404950242784374,45.24043210581762],[-0.09406071975294181,45.240436406018226],[-0.09407193707803986,45.24044070621883],[-0.09408315440313793,45.240445006419435],[-0.09409437172823598,45.24044930662004],[-0.09410558905333405,45.24045360682065],[-0.0941168063784321,45.24045790702126],[-0.09412802370353017,45.24046220722187],[-0.09413924102862822,45.240466507422475],[-0.09415045835372629,45.24047080762308],[-0.09416167567882434,45.24047510782369],[-0.09417289300392241,45.2404794080243],[-0.09418411032902047,45.24048370822491],[-0.09419532765411853,45.240488008425515],[-0.09420654497921659,45.240492308626116],[-0.09421776230431465,45.240496608826724],[-0.0942289796294127,45.24050090902733],[-0.09424019695451077,45.24050520922794],[-0.09425141427960883,45.24050950942855],[-0.09426263160470688,45.24051380962916],[-0.09427384892980495,45.240518109829765],[-0.094285066254903,45.24052241003037],[-0.09429628358000107,45.24052671023098],[-0.0943033,45.2405294],[-0.09431452246407672,45.2405336936277],[-0.09432574492815345,45.24053798725539],[-0.09433696739223016,45.24054228088308],[-0.09434818985630689,45.24054657451077],[-0.0943594123203836,45.24055086813847],[-0.09437063478446031,45.24055516176617],[-0.09438185724853704,45.24055945539386],[-0.09439307971261375,45.240563749021554],[-0.09440430217669048,45.240568042649244],[-0.09441552464076719,45.24057233627694],[-0.0944267471048439,45.24057662990464],[-0.09443796956892063,45.24058092353233],[-0.09444919203299734,45.240585217160024],[-0.09446041449707406,45.240589510787714],[-0.09447163696115078,45.24059380441541],[-0.0944828594252275,45.24059809804311],[-0.09449408188930422,45.2406023916708],[-0.09450530435338093,45.240606685298495],[-0.09451652681745765,45.240610978926185],[-0.09452774928153437,45.24061527255388],[-0.09453897174561109,45.24061956618158],[-0.09455019420968781,45.24062385980927],[-0.09456141667376453,45.240628153436965],[-0.09457263913784124,45.240632447064655],[-0.09458386160191797,45.24063674069235],[-0.09459508406599468,45.24064103432005],[-0.0946063065300714,45.24064532794774],[-0.09461752899414812,45.240649621575436],[-0.09462875145822483,45.240653915203126],[-0.09463997392230156,45.24065820883082],[-0.09465119638637827,45.24066250245851],[-0.094662418850455,45.24066679608621],[-0.09467364131453171,45.240671089713906],[-0.09468486377860842,45.240675383341596],[-0.09469608624268515,45.24067967696929],[-0.09470730870676186,45.24068397059698],[-0.09471853117083859,45.24068826422468],[-0.0947297536349153,45.24069255785238],[-0.09474097609899201,45.24069685148007],[-0.09475219856306874,45.240701145107764],[-0.09476342102714545,45.24070543873545],[-0.09477464349122217,45.24070973236315],[-0.09478586595529889,45.24071402599085],[-0.0947970884193756,45.24071831961854],[-0.09480831088345233,45.240722613246234],[-0.09481953334752904,45.240726906873924],[-0.09483075581160576,45.24073120050162],[-0.09484197827568248,45.24073549412932],[-0.0948532007397592,45.24073978775701],[-0.09486442320383592,45.240744081384705],[-0.09487564566791264,45.240748375012394],[-0.09488686813198935,45.24075266864009],[-0.09489809059606608,45.24075696226779],[-0.09490931306014279,45.24076125589548],[-0.09492053552421952,45.240765549523175],[-0.09493175798829623,45.240769843150865],[-0.09494298045237294,45.24077413677856],[-0.09495420291644967,45.24077843040626],[-0.09496542538052638,45.24078272403395],[-0.09497664784460311,45.240787017661646],[-0.09498787030867982,45.240791311289335],[-0.09499909277275653,45.24079560491703],[-0.09501031523683326,45.24079989854473],[-0.09502153770090997,45.24080419217242],[-0.09503276016498668,45.240808485800116],[-0.09504398262906341,45.240812779427806],[-0.09505520509314012,45.2408170730555],[-0.09506642755721685,45.2408213666832],[-0.09507765002129356,45.24082566031089],[-0.09508887248537028,45.24082995393859],[-0.095100094949447,45.240834247566276],[-0.09511131741352372,45.24083854119397],[-0.09512253987760044,45.24084283482167],[-0.09513376234167716,45.24084712844936],[-0.09514498480575387,45.24085142207706],[-0.0951562072698306,45.24085571570475],[-0.09516742973390731,45.240860009332444],[-0.09517865219798403,45.24086430296014],[-0.09518987466206075,45.24086859658783],[-0.09520109712613746,45.24087289021553],[-0.09521231959021419,45.24087718384322],[-0.0952235420542909,45.240881477470914],[-0.09523476451836763,45.24088577109861],[-0.09524598698244434,45.2408900647263],[-0.09525720944652105,45.240894358354],[-0.09526843191059778,45.24089865198169],[-0.09527965437467449,45.240902945609385],[-0.0952908768387512,45.240907239237075],[-0.09530209930282793,45.24091153286477],[-0.09531332176690464,45.24091582649247],[-0.09532454423098137,45.24092012012016],[-0.09533576669505808,45.240924413747855],[-0.0953469891591348,45.240928707375545],[-0.09535821162321152,45.24093300100324],[-0.0953603,45.2409338]]}},{"type":"Feature","properties":{"@id":"way/54412766","highway":"raceway","name":"Piste vitesse","oneway":"yes","sport":"motor","width":"6","@timestamp":"2026-05-25T17:51:31Z","@version":9,"@changeset":183170684,"@user":"YBau","@uid":19282503},"geometry":{"type":"LineString","coordinates":[[-0.0953603,45.2409338],[-0.09536991921429239,45.240939716288835],[-0.09537953842858478,45.24094563257767],[-0.09538915764287716,45.240951548866505],[-0.09539877685716955,45.24095746515534],[-0.09540839607146194,45.24096338144417],[-0.09541801528575433,45.240969297733],[-0.09542763450004672,45.24097521402184],[-0.0954372537143391,45.24098113031067],[-0.0954468729286315,45.24098704659951],[-0.09545649214292388,45.24099296288834],[-0.09546611135721628,45.24099887917718],[-0.09547573057150865,45.24100479546601],[-0.09548534978580105,45.24101071175484],[-0.09549496900009344,45.241016628043674],[-0.09550458821438583,45.24102254433251],[-0.09551420742867822,45.241028460621344],[-0.0955238266429706,45.24103437691018],[-0.09553344585726299,45.24104029319901],[-0.09554306507155538,45.24104620948785],[-0.0955437,45.2410466]]}},{"type":"Feature","properties":{"@id":"way/54412766","highway":"raceway","name":"Piste vitesse","oneway":"yes","sport":"motor","width":"6","@timestamp":"2026-05-25T17:51:31Z","@version":9,"@changeset":183170684,"@user":"YBau","@uid":19282503},"geometry":{"type":"LineString","coordinates":[[-0.0955437,45.2410466],[-0.09555040341774544,45.241054255007015],[-0.09555710683549087,45.241061910014025],[-0.09556381025323632,45.24106956502104],[-0.09557051367098175,45.24107722002806],[-0.0955772170887272,45.24108487503507],[-0.09558392050647263,45.24109253004209],[-0.09559062392421808,45.241100185049106],[-0.09559732734196352,45.24110784005612],[-0.09560403075970896,45.241115495063134],[-0.0956107341774544,45.24112315007015],[-0.09561743759519983,45.24113080507717],[-0.09562414101294528,45.24113846008418],[-0.09563084443069071,45.2411461150912],[-0.09563754784843616,45.241153770098215],[-0.09564425126618159,45.241161425105226],[-0.09565095468392704,45.24116908011224],[-0.09565765810167248,45.24117673511926],[-0.09566436151941791,45.24118439012627],[-0.0956705,45.2411914]]}},{"type":"Feature","properties":{"@id":"way/54412766","highway":"raceway","name":"Piste vitesse","oneway":"yes","sport":"motor","width":"6","@timestamp":"2026-05-25T17:51:31Z","@version":9,"@changeset":183170684,"@user":"YBau","@uid":19282503},"geometry":{"type":"LineString","coordinates":[[-0.0956705,45.2411914],[-0.09567827004558381,45.24119853760001],[-0.09568604009116763,45.24120567520002],[-0.09569381013675143,45.241212812800036],[-0.09570158018233525,45.24121995040005],[-0.09570935022791906,45.241227088000066],[-0.09571712027350288,45.241234225600074],[-0.09572489031908668,45.24124136320009],[-0.0957326603646705,45.241248500800104],[-0.0957404304102543,45.24125563840011],[-0.09574820045583812,45.24126277600013],[-0.09575597050142193,45.24126991360014],[-0.09576374054700575,45.24127705120016],[-0.09577151059258955,45.241284188800165],[-0.09577928063817337,45.24129132640018],[-0.09578705068375717,45.241298464000195],[-0.0957909,45.241302]]}},{"type":"Feature","properties":{"@id":"way/54412766","highway":"raceway","name":"Piste vitesse","oneway":"yes","sport":"motor","width":"6","@timestamp":"2026-05-25T17:51:31Z","@version":9,"@changeset":183170684,"@user":"YBau","@uid":19282503},"geometry":{"type":"LineString","coordinates":[[-0.0957909,45.241302],[-0.095800815279051,45.24130766883294],[-0.095810730558102,45.24131333766588],[-0.09582064583715301,45.24131900649881],[-0.09583056111620401,45.241324675331754],[-0.09584047639525502,45.241330344164695],[-0.09585039167430602,45.241336012997635],[-0.09586030695335702,45.241341681830576],[-0.09587022223240803,45.24134735066351],[-0.09588013751145903,45.24135301949645],[-0.09589005279051004,45.24135868832939],[-0.09589996806956104,45.24136435716233],[-0.09590988334861204,45.241370025995266],[-0.09591979862766305,45.24137569482821],[-0.09592971390671405,45.24138136366115],[-0.0959345,45.2413841]]}},{"type":"Feature","properties":{"@id":"way/54412766","highway":"raceway","name":"Piste vitesse","oneway":"yes","sport":"motor","width":"6","@timestamp":"2026-05-25T17:51:31Z","@version":9,"@changeset":183170684,"@user":"YBau","@uid":19282503},"geometry":{"type":"LineString","coordinates":[[-0.0959345,45.2413841],[-0.09594513028919292,45.24138908523907],[-0.09595576057838584,45.24139407047814],[-0.09596639086757876,45.24139905571721],[-0.09597702115677167,45.241404040956276],[-0.09598765144596459,45.24140902619535],[-0.09599828173515751,45.241414011434415],[-0.09600891202435043,45.24141899667349],[-0.09601954231354334,45.241423981912554],[-0.09603017260273626,45.24142896715163],[-0.09604080289192918,45.2414339523907],[-0.0960514331811221,45.241438937629766],[-0.09606206347031501,45.24144392286884],[-0.09607269375950793,45.241448908107905],[-0.09608332404870085,45.24145389334698],[-0.09609395433789376,45.241458878586045],[-0.09610458462708668,45.24146386382512],[-0.0961152149162796,45.241468849064184],[-0.09612584520547252,45.24147383430326],[-0.09613647549466543,45.24147881954232],[-0.09614710578385835,45.241483804781396],[-0.09615773607305127,45.24148879002047],[-0.09616836636224418,45.241493775259535],[-0.0961789966514371,45.24149876049861],[-0.09618962694063002,45.241503745737674],[-0.09620025722982294,45.24150873097675],[-0.09621,45.2415133]]}},{"type":"Feature","properties":{"@id":"way/54412766","highway":"raceway","name":"Piste vitesse","oneway":"yes","sport":"motor","width":"6","@timestamp":"2026-05-25T17:51:31Z","@version":9,"@changeset":183170684,"@user":"YBau","@uid":19282503},"geometry":{"type":"LineString","coordinates":[[-0.09621,45.2415133],[-0.09622001589076581,45.24151888048907],[-0.09623003178153162,45.241524460978134],[-0.09624004767229744,45.2415300414672],[-0.09625006356306325,45.24153562195627],[-0.09626007945382907,45.24154120244533],[-0.09627009534459488,45.2415467829344],[-0.09628011123536069,45.241552363423466],[-0.0962901271261265,45.24155794391253],[-0.09630014301689231,45.2415635244016],[-0.09631015890765812,45.241569104890665],[-0.09632017479842393,45.24157468537973],[-0.09633019068918974,45.2415802658688],[-0.09634020657995557,45.241585846357864],[-0.09635022247072138,45.24159142684693],[-0.09636023836148719,45.241597007336],[-0.096370254252253,45.241602587825064],[-0.09638027014301881,45.24160816831413],[-0.09639028603378462,45.241613748803196],[-0.09640030192455043,45.24161932929226],[-0.09641031781531624,45.24162490978133],[-0.0964173,45.2416288]]}},{"type":"Feature","properties":{"@id":"way/54412766","highway":"raceway","name":"Piste vitesse","oneway":"yes","sport":"motor","width":"6","@timestamp":"2026-05-25T17:51:31Z","@version":9,"@changeset":183170684,"@user":"YBau","@uid":19282503},"geometry":{"type":"LineString","coordinates":[[-0.0964173,45.2416288],[-0.0964253093058554,45.24163580529031],[-0.0964333186117108,45.241642810580615],[-0.0964413279175662,45.24164981587092],[-0.0964493372234216,45.24165682116123],[-0.09645734652927701,45.241663826451536],[-0.09646535583513241,45.24167083174184],[-0.09647336514098781,45.24167783703215],[-0.09648137444684321,45.24168484232245],[-0.09648938375269861,45.241691847612756],[-0.09649739305855401,45.24169885290306],[-0.09650540236440941,45.24170585819337],[-0.09651341167026481,45.24171286348368],[-0.09652142097612022,45.241719868773984],[-0.09652943028197562,45.24172687406429],[-0.09653743958783102,45.2417338793546],[-0.09654544889368642,45.241740884644905],[-0.09655345819954182,45.24174788993521],[-0.09656146750539722,45.24175489522552],[-0.09656947681125262,45.241761900515826],[-0.09657748611710802,45.24176890580613],[-0.09658549542296344,45.24177591109644],[-0.09659350472881884,45.24178291638674],[-0.09660151403467424,45.24178992167705],[-0.09660952334052963,45.24179692696735],[-0.09661753264638503,45.24180393225766],[-0.09662554195224043,45.24181093754797],[-0.09663355125809583,45.241817942838274],[-0.09664156056395123,45.24182494812858],[-0.09664956986980665,45.24183195341889],[-0.09665757917566205,45.241838958709195],[-0.096663,45.2418437],[-0.09666791318005104,45.24185200121613],[-0.09667282636010208,45.241860302432265],[-0.09667773954015312,45.2418686036484],[-0.09668265272020415,45.24187690486453],[-0.09668756590025519,45.24188520608067],[-0.09669247908030623,45.2418935072968],[-0.09669739226035727,45.241901808512935],[-0.09670230544040831,45.24191010972907],[-0.09670721862045935,45.2419184109452],[-0.09671213180051039,45.24192671216134],[-0.09671704498056143,45.24193501337747],[-0.09672195816061246,45.241943314593605],[-0.0967268713406635,45.24195161580973],[-0.09673178452071454,45.241959917025866],[-0.09673669770076558,45.241968218242],[-0.09674161088081662,45.241976519458134],[-0.09674652406086766,45.24198482067427],[-0.0967514372409187,45.2419931218904],[-0.0967561,45.242001],[-0.09675812132347587,45.242009879883135],[-0.09676014264695175,45.24201875976627],[-0.09676216397042763,45.2420276396494],[-0.0967641852939035,45.242036519532526],[-0.09676620661737936,45.24204539941566],[-0.09676822794085524,45.24205427929879],[-0.09677024926433112,45.242063159181924],[-0.09677227058780699,45.24207203906506],[-0.09677429191128287,45.24208091894819],[-0.09677631323475874,45.242089798831316],[-0.09677833455823462,45.24209867871445],[-0.0967803558817105,45.24210755859758],[-0.09678237720518637,45.242116438480714],[-0.09678439852866223,45.24212531836385],[-0.09678641985213811,45.24213419824698],[-0.09678844117561398,45.24214307813011],[-0.09679046249908986,45.24215195801324],[-0.09679248382256574,45.24216083789637],[-0.09679450514604161,45.242169717779504],[-0.09679652646951749,45.24217859766264],[-0.09679854779299336,45.24218747754577],[-0.0967996,45.2421921],[-0.09679771281214845,45.24220099450725],[-0.09679582562429691,45.242209889014504],[-0.09679393843644536,45.24221878352176],[-0.09679205124859382,45.24222767802901],[-0.09679016406074228,45.242236572536264],[-0.09678827687289074,45.24224546704352],[-0.09678638968503919,45.24225436155078],[-0.09678450249718765,45.24226325605803],[-0.0967826153093361,45.242272150565285],[-0.09678072812148455,45.24228104507254],[-0.09677884093363301,45.24228993957979],[-0.09677695374578146,45.242298834087045],[-0.09677506655792993,45.2423077285943],[-0.09677317937007839,45.24231662310155],[-0.09677129218222684,45.242325517608805],[-0.0967694049943753,45.24233441211606],[-0.09676751780652375,45.24234330662331],[-0.0967656306186722,45.242352201130565],[-0.09676374343082066,45.242361095637825],[-0.09676185624296911,45.24236999014508],[-0.09675996905511758,45.24237888465233],[-0.09675808186726603,45.242387779159586],[-0.09675619467941449,45.24239667366684],[-0.09675430749156294,45.24240556817409],[-0.0967524203037114,45.242414462681346],[-0.09675053311585985,45.2424233571886],[-0.0967486459280083,45.24243225169585],[-0.09674675874015676,45.242441146203106],[-0.09674487155230521,45.24245004071036],[-0.09674298436445368,45.24245893521761],[-0.09674109717660213,45.24246782972487],[-0.0967393,45.2424763],[-0.09673241047649993,45.242483872722595],[-0.09672552095299985,45.24249144544519],[-0.09671863142949978,45.242499018167784],[-0.09671174190599971,45.24250659089038],[-0.09670485238249964,45.242514163612974],[-0.09669796285899956,45.24252173633557],[-0.09669107333549949,45.24252930905816],[-0.09668418381199942,45.24253688178076],[-0.09667729428849935,45.24254445450335],[-0.09667040476499927,45.24255202722595],[-0.0966635152414992,45.24255959994854],[-0.09665662571799913,45.24256717267114],[-0.09664973619449906,45.24257474539373],[-0.09664284667099898,45.24258231811633],[-0.09663595714749891,45.24258989083892],[-0.09662906762399884,45.242597463561516],[-0.09662217810049877,45.24260503628411],[-0.09661528857699869,45.242612609006706],[-0.09660839905349862,45.2426201817293],[-0.09660150952999855,45.242627754451895],[-0.09659462000649847,45.24263532717449],[-0.0965877304829984,45.242642899897085],[-0.09658084095949833,45.24265047261968],[-0.09657395143599826,45.242658045342274],[-0.09656706191249818,45.24266561806487],[-0.09656017238899811,45.242673190787464],[-0.09655328286549804,45.24268076351006],[-0.0965477,45.2426869],[-0.09653740131874969,45.24269221938659],[-0.09652710263749936,45.24269753877318],[-0.09651680395624905,45.242702858159774],[-0.09650650527499874,45.24270817754636],[-0.09649620659374841,45.24271349693295],[-0.0964859079124981,45.24271881631954],[-0.09647560923124779,45.24272413570613],[-0.09646531054999746,45.24272945509272],[-0.09645501186874715,45.24273477447931],[-0.09644471318749684,45.2427400938659],[-0.09643441450624653,45.24274541325249],[-0.0964241158249962,45.24275073263908],[-0.09641381714374589,45.24275605202567],[-0.09640351846249558,45.24276137141226],[-0.09639321978124525,45.24276669079885],[-0.09638292109999494,45.24277201018544],[-0.09637262241874463,45.24277732957203],[-0.0963623237374943,45.24278264895862],[-0.09635202505624399,45.24278796834521],[-0.09634172637499368,45.2427932877318],[-0.09633142769374335,45.24279860711839],[-0.09632112901249304,45.242803926504976],[-0.0963115,45.2428089],[-0.09629950648943221,45.24281199280396],[-0.09628751297886441,45.242815085607916],[-0.09627551946829663,45.24281817841187],[-0.09626352595772883,45.24282127121583],[-0.09625153244716105,45.24282436401979],[-0.09623953893659326,45.24282745682375],[-0.09622754542602546,45.242830549627705],[-0.09621555191545768,45.24283364243166],[-0.09620355840488988,45.24283673523562],[-0.0961915648943221,45.24283982803957],[-0.09617957138375431,45.24284292084353],[-0.09616757787318651,45.24284601364749],[-0.09615558436261873,45.242849106451445],[-0.09614359085205093,45.2428521992554],[-0.09613159734148315,45.24285529205936],[-0.09611960383091535,45.24285838486332],[-0.09610761032034756,45.242861477667276],[-0.09609561680977978,45.242864570471234],[-0.0960924,45.2428654],[-0.09607964344211471,45.24286585036908],[-0.09606688688422942,45.24286630073815],[-0.09605413032634413,45.24286675110723],[-0.09604137376845885,45.24286720147631],[-0.09602861721057357,45.24286765184539],[-0.09601586065268827,45.24286810221446],[-0.09600310409480299,45.24286855258354],[-0.09599034753691771,45.24286900295262],[-0.09597759097903243,45.242869453321696],[-0.09596483442114713,45.24286990369077],[-0.09595207786326185,45.242870354059846],[-0.09593932130537657,45.242870804428925],[-0.09592656474749128,45.242871254798],[-0.09591380818960599,45.242871705167076],[-0.0959010516317207,45.242872155536155],[-0.09588829507383542,45.242872605905234],[-0.09587553851595014,45.242873056274306],[-0.0958743,45.2428731]]}}]}