{
  "type": "FeatureCollection",
  "generator": "OXV Telemetry Builder - Perfect Loop",
  "features": [
    {
      "type": "Feature",
      "properties": {
        "name": "Circuit Spéciale OXV (Boucle Fermée)",
        "type": "raceway",
        "description": "Fusion des routes D152, Rue du Prévôt, Echauguette, Châteauneuf et D699 sans dépassements aux intersections."
      },
      "geometry": {
        "type": "LineString",
        "coordinates": [
          [ -0.122914, 45.5833762 ],
          [ -0.1229451, 45.5834121 ],
          [ -0.122944, 45.5836095 ],
          [ -0.1228828, 45.5842859 ],
          [ -0.1228497, 45.5847937 ],
          [ -0.1228576, 45.5850021 ],
          [ -0.123013, 45.5854277 ],
          [ -0.1231225, 45.5855268 ],
          [ -0.1233079, 45.5855969 ],
          [ -0.1239321, 45.5857567 ],
          [ -0.1242282, 45.5858716 ],
          [ -0.1245243, 45.5860374 ],
          [ -0.1252312, 45.5867862 ],
          [ -0.1255128, 45.5871265 ],
          [ -0.1255942, 45.5873076 ],
          [ -0.1255923, 45.5874908 ],
          [ -0.1255358, 45.5876486 ],
          [ -0.1253262, 45.5878699 ],
          [ -0.1252123, 45.5880461 ],
          [ -0.1251653, 45.5881909 ],
          [ -0.1251889, 45.5883333 ],
          [ -0.1252484, 45.5884781 ],
          [ -0.1254143, 45.5886588 ],
          [ -0.1261583, 45.5893353 ],
          [ -0.1267703, 45.5901667 ],
          [ -0.1269627, 45.5903815 ],
          [ -0.1272134, 45.590625 ],
          [ -0.1277532, 45.5910124 ],
          [ -0.1278208, 45.5910528 ],
          [ -0.1283895, 45.5914533 ],
          [ -0.1291222, 45.5919906 ],
          [ -0.1296826, 45.5924013 ],
          [ -0.1300142, 45.5925843 ],
          [ -0.1304277, 45.5927355 ],
          [ -0.1309752, 45.592907 ],
          [ -0.1312951, 45.5930402 ],
          [ -0.1315168, 45.593223 ],
          [ -0.1316272, 45.5933488 ],
          [ -0.132026, 45.5939738 ],
          [ -0.1323181, 45.5944451 ],
          [ -0.1325121, 45.5952597 ],
          [ -0.1326379, 45.5956573 ],
          [ -0.1328238, 45.5960473 ],
          [ -0.1332146, 45.5967597 ],
          [ -0.1333181, 45.5969483 ],
          [ -0.1338533, 45.5978174 ],
          [ -0.1340769, 45.5983739 ],
          [ -0.1341871, 45.5987091 ],
          [ -0.1342443, 45.5989659 ],
          [ -0.1342558, 45.5989918 ],
          [ -0.1341965, 45.5989939 ],
          [ -0.1341104, 45.5989743 ],
          [ -0.133545, 45.598778 ],
          [ -0.1330342, 45.5985958 ],
          [ -0.1326629, 45.5984774 ],
          [ -0.1324783, 45.598434 ],
          [ -0.1322707, 45.5984104 ],
          [ -0.1320631, 45.5984169 ],
          [ -0.1318206, 45.5984551 ],
          [ -0.1308002, 45.5986923 ],
          [ -0.1304345, 45.5987445 ],
          [ -0.1300044, 45.598743 ],
          [ -0.1295682, 45.598687 ],
          [ -0.1291658, 45.5986248 ],
          [ -0.1286664, 45.5985425 ],
          [ -0.1282386, 45.598468 ],
          [ -0.1279901, 45.5984432 ],
          [ -0.1277578, 45.5984372 ],
          [ -0.1274348, 45.5984539 ],
          [ -0.1273723, 45.5984044 ],
          [ -0.1272553, 45.5983757 ],
          [ -0.1269669, 45.5983097 ],
          [ -0.1267267, 45.5982174 ],
          [ -0.1265476, 45.5981204 ],
          [ -0.1263684, 45.5980008 ],
          [ -0.1260038, 45.5976423 ],
          [ -0.125841, 45.597523 ],
          [ -0.1256731, 45.597473 ],
          [ -0.1253601, 45.5973768 ],
          [ -0.125118, 45.5972607 ],
          [ -0.1242981, 45.5966713 ],
          [ -0.1239903, 45.596452 ],
          [ -0.1236186, 45.5963004 ],
          [ -0.1226195, 45.5960803 ],
          [ -0.1202711, 45.5953317 ],
          [ -0.1176893, 45.5944499 ],
          [ -0.1164634, 45.593817 ],
          [ -0.1155727, 45.5931563 ],
          [ -0.1154068, 45.5930332 ],
          [ -0.1144578, 45.5923732 ],
          [ -0.1133118, 45.5914303 ],
          [ -0.1125586, 45.5905168 ],
          [ -0.1123237, 45.590181 ],
          [ -0.1121087, 45.5898737 ],
          [ -0.1120794, 45.5898307 ],
          [ -0.1116505, 45.5892 ],
          [ -0.1112196, 45.5886142 ],
          [ -0.1109336, 45.5882349 ],
          [ -0.1108976, 45.588194 ],
          [ -0.1114133, 45.5879939 ],
          [ -0.1119365, 45.5877735 ],
          [ -0.1121987, 45.5876346 ],
          [ -0.1126088, 45.5873762 ],
          [ -0.113145, 45.5870108 ],
          [ -0.1139257, 45.5864761 ],
          [ -0.1143749, 45.5861815 ],
          [ -0.1148242, 45.5859095 ],
          [ -0.1163754, 45.5850159 ],
          [ -0.1182583, 45.5839559 ],
          [ -0.1183711, 45.5838729 ],
          [ -0.1184131, 45.5837701 ],
          [ -0.1184167, 45.5836737 ],
          [ -0.1183889, 45.583603 ],
          [ -0.1183451, 45.583536 ],
          [ -0.1180826, 45.5832927 ],
          [ -0.1177235, 45.5829931 ],
          [ -0.1176734, 45.5829277 ],
          [ -0.1176608, 45.5828624 ],
          [ -0.1176997, 45.5828088 ],
          [ -0.1177761, 45.5827721 ],
          [ -0.1178763, 45.582771 ],
          [ -0.1179632, 45.5827925 ],
          [ -0.1184762, 45.5830862 ],
          [ -0.1186951, 45.5832499 ],
          [ -0.1189086, 45.5834531 ],
          [ -0.1198167, 45.5845238 ],
          [ -0.119921, 45.5846297 ],
          [ -0.1200709, 45.5847186 ],
          [ -0.120219, 45.5847628 ],
          [ -0.120395, 45.5847848 ],
          [ -0.1205662, 45.5847865 ],
          [ -0.1211908, 45.5847243 ],
          [ -0.1214181, 45.5846841 ],
          [ -0.1216239, 45.5846213 ],
          [ -0.1218305, 45.5845272 ],
          [ -0.1220666, 45.5843842 ],
          [ -0.1221818, 45.5843059 ],
          [ -0.1223105, 45.5841864 ],
          [ -0.1224259, 45.5840632 ],
          [ -0.122914, 45.5833762 ]
        ]
      }
    },
    {
      "type": "Feature",
      "properties": {
        "name": "Ligne de Départ/Arrivée OXV",
        "type": "start_finish",
        "description": "Point GPS officiel"
      },
      "geometry": {
        "type": "Point",
        "coordinates": [
          -0.133383,
          45.597153
        ]
      }
    }
  ]
}