{
  "type": "FeatureCollection",
  "generator": "overpass-turbo + OXV Telemetry",
  "copyright": "The data included in this document is from www.openstreetmap.org. The data is made available under ODbL.",
  "timestamp": "2026-07-16T15:40:11Z",
  "features": [
    {
      "type": "Feature",
      "properties": {
        "@id": "way/110383450",
        "building": "yes",
        "source": "cadastre-dgi-fr source : Direction Générale des Impôts - Cadastre. Mise à jour : 2011"
      },
      "geometry": {
        "type": "Polygon",
        "coordinates": [
          [
            [-0.0949483, 45.2404517],
            [-0.0950213, 45.2403757],
            [-0.0942963, 45.2400337],
            [-0.0942243, 45.2401097],
            [-0.0949483, 45.2404517]
          ]
        ]
      },
      "id": "way/110383450"
    },
    {
      "type": "Feature",
      "properties": {
        "@id": "way/54412759",
        "highway": "service",
        "source": "cadastre-dgi-fr source : Direction Générale des Impôts - Cadastre ; mise à jour : 2010"
      },
      "geometry": {
        "type": "LineString",
        "coordinates": [
          [-0.0908906, 45.2390749],
          [-0.0912516, 45.2391293],
          [-0.092159, 45.2393437],
          [-0.0925844, 45.2394476],
          [-0.092798, 45.2395153],
          [-0.092932, 45.239577],
          [-0.0934017, 45.239856],
          [-0.093669, 45.2400284],
          [-0.0939316, 45.240145],
          [-0.0940822, 45.2402083],
          [-0.0948129, 45.2405154],
          [-0.0950511, 45.2406122],
          [-0.0952084, 45.2406761],
          [-0.095594, 45.2408144],
          [-0.0959996, 45.2409609],
          [-0.0963118, 45.2411163],
          [-0.0965422, 45.2412871],
          [-0.0966891, 45.2414841],
          [-0.0967584, 45.2416352],
          [-0.0967968, 45.2418259],
          [-0.0968077, 45.2419573],
          [-0.0967996, 45.2421921]
        ]
      },
      "id": "way/54412759"
    },
    {
      "type": "Feature",
      "properties": {
        "@id": "way/54412766",
        "highway": "raceway",
        "name": "Piste vitesse",
        "oneway": "yes",
        "sport": "motor",
        "width": "6"
      },
      "geometry": {
        "type": "LineString",
        "coordinates": [
          [-0.0958743, 45.2428731],
          [-0.0955631, 45.2428442],
          [-0.0941293, 45.2426515],
          [-0.0895603, 45.242074],
          [-0.0886945, 45.2419553],
          [-0.0882683, 45.2418981],
          [-0.0881955, 45.2418691],
          [-0.0881423, 45.2418313],
          [-0.0881122, 45.2417749],
          [-0.0881083, 45.2417019],
          [-0.0881483, 45.2416307],
          [-0.0882331, 45.2415802],
          [-0.0883407, 45.2415538],
          [-0.0887451, 45.2415523],
          [-0.0900869, 45.2416112],
          [-0.0905141, 45.2416275],
          [-0.0906659, 45.2416234],
          [-0.0907899, 45.2415943],
          [-0.0908748, 45.2415453],
          [-0.0909465, 45.2414674],
          [-0.0911627, 45.2411299],
          [-0.0915498, 45.2405671],
          [-0.0916411, 45.2404245],
          [-0.0916795, 45.2403405],
          [-0.0916873, 45.2402726],
          [-0.0916685, 45.2401704],
          [-0.0916003, 45.2400719],
          [-0.0914963, 45.2399848],
          [-0.0911735, 45.2398547],
          [-0.0907832, 45.2396985],
          [-0.0906487, 45.2396566],
          [-0.0904954, 45.239662],
          [-0.0903263, 45.2397425],
          [-0.0899898, 45.2398744],
          [-0.0897982, 45.2399065],
          [-0.0895865, 45.2399029],
          [-0.089349, 45.2398511],
          [-0.0891708, 45.2397661],
          [-0.0890188, 45.2396453],
          [-0.0889292, 45.2395497],
          [-0.0888765, 45.2394321],
          [-0.0888715, 45.2393108],
          [-0.0889068, 45.2392012],
          [-0.0889951, 45.2390839],
          [-0.0891372, 45.2389909],
          [-0.089298, 45.2389297],
          [-0.0895002, 45.2388985],
          [-0.0896707, 45.2389076],
          [-0.090321, 45.2389931],
          [-0.0908906, 45.2390749],
          [-0.0910597, 45.2391492],
          [-0.0914741, 45.2393919],
          [-0.0917249, 45.2395374],
          [-0.0920074, 45.2396432],
          [-0.0924186, 45.2397981],
          [-0.0930043, 45.2400325],
          [-0.0937242, 45.2403074],
          [-0.0943033, 45.2405294],
          [-0.0953603, 45.2409338],
          [-0.0955437, 45.2410466],
          [-0.0956705, 45.2411914],
          [-0.0957909, 45.241302],
          [-0.0959345, 45.2413841],
          [-0.09621, 45.2415133],
          [-0.0964173, 45.2416288],
          [-0.096663, 45.2418437],
          [-0.0967561, 45.242001],
          [-0.0967996, 45.2421921],
          [-0.0967393, 45.2424763],
          [-0.0965477, 45.2426869],
          [-0.0963115, 45.2428089],
          [-0.0960924, 45.2428654],
          [-0.0958743, 45.2428731]
        ]
      },
      "id": "way/54412766"
    },
    {
      "type": "Feature",
      "properties": {
        "name": "Ligne de départ/arrivée OXV",
        "type": "start_finish",
        "description": "Point GPS officiel OXV pour déclenchement chrono"
      },
      "geometry": {
        "type": "Point",
        "coordinates": [-0.094391, 45.240578]
      }
    }
  ]
}
