{
    "type": "FeatureCollection",
    "features": [
        {
            "type": "Feature",
            "properties": {
                "@id": "way/556948363",
                "building": "yes",
                "name": "Pit - Lane Circuit Ricardo Tormo"
            },
            "geometry": {
                "type": "Polygon",
                "coordinates": [
                    [
                        [
                            -0.630711,
                            39.483486
                        ],
                        [
                            -0.630619,
                            39.483371
                        ],
                        [
                            -0.630577,
                            39.483389
                        ],
                        [
                            -0.630438,
                            39.48325
                        ],
                        [
                            -0.630381,
                            39.483281
                        ],
                        [
                            -0.630515,
                            39.483419
                        ],
                        [
                            -0.630047,
                            39.48367
                        ],
                        [
                            -0.629915,
                            39.483549
                        ],
                        [
                            -0.629861,
                            39.483576
                        ],
                        [
                            -0.629986,
                            39.48371
                        ],
                        [
                            -0.629518,
                            39.48395
                        ],
                        [
                            -0.629389,
                            39.483823
                        ],
                        [
                            -0.62932,
                            39.483853
                        ],
                        [
                            -0.629445,
                            39.483998
                        ],
                        [
                            -0.628981,
                            39.484243
                        ],
                        [
                            -0.628865,
                            39.484117
                        ],
                        [
                            -0.628797,
                            39.48414
                        ],
                        [
                            -0.62892,
                            39.484275
                        ],
                        [
                            -0.628451,
                            39.484526
                        ],
                        [
                            -0.628327,
                            39.484388
                        ],
                        [
                            -0.628256,
                            39.484418
                        ],
                        [
                            -0.628374,
                            39.484567
                        ],
                        [
                            -0.627923,
                            39.484805
                        ],
                        [
                            -0.627806,
                            39.484674
                        ],
                        [
                            -0.627742,
                            39.484713
                        ],
                        [
                            -0.627862,
                            39.484853
                        ],
                        [
                            -0.627395,
                            39.485108
                        ],
                        [
                            -0.627267,
                            39.484952
                        ],
                        [
                            -0.627237,
                            39.484963
                        ],
                        [
                            -0.627206,
                            39.484985
                        ],
                        [
                            -0.627337,
                            39.485138
                        ],
                        [
                            -0.627079,
                            39.485291
                        ],
                        [
                            -0.627144,
                            39.485346
                        ],
                        [
                            -0.627185,
                            39.48538
                        ],
                        [
                            -0.630711,
                            39.483486
                        ]
                    ]
                ]
            },
            "id": "way/556948363",
            "bbox": [
                -0.630711,
                39.48325,
                -0.627079,
                39.48538
            ]
        },
        {
            "type": "Feature",
            "properties": {
                "@id": "way/51765217",
                "highway": "raceway",
                "name": "Pit Lane",
                "sport": "motor"
            },
            "geometry": {
                "type": "LineString",
                "coordinates": [
                    [
                        -0.632678,
                        39.482498
                    ],
                    [
                        -0.632404,
                        39.482596
                    ],
                    [
                        -0.632147,
                        39.482767
                    ],
                    [
                        -0.6318,
                        39.483009
                    ],
                    [
                        -0.627991,
                        39.485022
                    ],
                    [
                        -0.627568,
                        39.485254
                    ],
                    [
                        -0.627363,
                        39.485371
                    ],
                    [
                        -0.627154,
                        39.485505
                    ],
                    [
                        -0.626574,
                        39.485842
                    ],
                    [
                        -0.626252,
                        39.486036
                    ],
                    [
                        -0.626173,
                        39.486094
                    ],
                    [
                        -0.626113,
                        39.48616
                    ],
                    [
                        -0.626055,
                        39.486228
                    ],
                    [
                        -0.626015,
                        39.486292
                    ],
                    [
                        -0.625986,
                        39.486356
                    ],
                    [
                        -0.625959,
                        39.486433
                    ],
                    [
                        -0.625946,
                        39.486511
                    ],
                    [
                        -0.625948,
                        39.486596
                    ],
                    [
                        -0.625964,
                        39.48667
                    ],
                    [
                        -0.626008,
                        39.486773
                    ],
                    [
                        -0.626237,
                        39.487071
                    ]
                ]
            },
            "id": "way/51765217",
            "bbox": [
                -0.632678,
                39.482498,
                -0.625946,
                39.487071
            ]
        },
        {
            "type": "Feature",
            "properties": {
                "@id": "way/51765219",
                "highway": "raceway",
                "name": "Circuit Ricardo Tormo",
                "sport": "motor"
            },
            "geometry": {
                "type": "LineString",
                "coordinates": [
                    [
                        -0.630626,
                        39.483787
                    ],
                    [
                        -0.628541,
                        39.484899
                    ],
                    [
                        -0.626372,
                        39.486063
                    ],
                    [
                        -0.626263,
                        39.486143
                    ],
                    [
                        -0.626179,
                        39.486221
                    ],
                    [
                        -0.626125,
                        39.486297
                    ],
                    [
                        -0.62609,
                        39.486367
                    ],
                    [
                        -0.626064,
                        39.486443
                    ],
                    [
                        -0.626055,
                        39.486519
                    ],
                    [
                        -0.626056,
                        39.486587
                    ],
                    [
                        -0.626066,
                        39.486663
                    ],
                    [
                        -0.626097,
                        39.486756
                    ],
                    [
                        -0.626237,
                        39.487071
                    ],
                    [
                        -0.627361,
                        39.489266
                    ],
                    [
                        -0.62739,
                        39.489302
                    ],
                    [
                        -0.627419,
                        39.48934
                    ],
                    [
                        -0.627455,
                        39.48937
                    ],
                    [
                        -0.627513,
                        39.4894
                    ],
                    [
                        -0.627588,
                        39.489425
                    ],
                    [
                        -0.627657,
                        39.48944
                    ],
                    [
                        -0.627719,
                        39.489437
                    ],
                    [
                        -0.627785,
                        39.489426
                    ],
                    [
                        -0.627841,
                        39.489402
                    ],
                    [
                        -0.6279,
                        39.489372
                    ],
                    [
                        -0.627945,
                        39.489336
                    ],
                    [
                        -0.627987,
                        39.489281
                    ],
                    [
                        -0.628023,
                        39.48922
                    ],
                    [
                        -0.62825,
                        39.48813
                    ],
                    [
                        -0.628252,
                        39.488011
                    ],
                    [
                        -0.628203,
                        39.487914
                    ],
                    [
                        -0.628128,
                        39.487844
                    ],
                    [
                        -0.627154,
                        39.486931
                    ],
                    [
                        -0.627109,
                        39.486848
                    ],
                    [
                        -0.627099,
                        39.486762
                    ],
                    [
                        -0.627134,
                        39.486688
                    ],
                    [
                        -0.627188,
                        39.486628
                    ],
                    [
                        -0.62734,
                        39.48654
                    ],
                    [
                        -0.628251,
                        39.486049
                    ],
                    [
                        -0.628468,
                        39.486004
                    ],
                    [
                        -0.62862,
                        39.486012
                    ],
                    [
                        -0.628777,
                        39.486052
                    ],
                    [
                        -0.628887,
                        39.486117
                    ],
                    [
                        -0.629013,
                        39.486234
                    ],
                    [
                        -0.629085,
                        39.486435
                    ],
                    [
                        -0.629101,
                        39.488202
                    ],
                    [
                        -0.629123,
                        39.488303
                    ],
                    [
                        -0.629192,
                        39.48839
                    ],
                    [
                        -0.629302,
                        39.48845
                    ],
                    [
                        -0.629398,
                        39.488503
                    ],
                    [
                        -0.629464,
                        39.48852
                    ],
                    [
                        -0.629538,
                        39.488527
                    ],
                    [
                        -0.629596,
                        39.488525
                    ],
                    [
                        -0.62966,
                        39.488516
                    ],
                    [
                        -0.629778,
                        39.488478
                    ],
                    [
                        -0.629904,
                        39.488426
                    ],
                    [
                        -0.63258,
                        39.486984
                    ],
                    [
                        -0.632699,
                        39.486904
                    ],
                    [
                        -0.632799,
                        39.486786
                    ],
                    [
                        -0.633652,
                        39.48564
                    ],
                    [
                        -0.633659,
                        39.485488
                    ],
                    [
                        -0.633635,
                        39.485344
                    ],
                    [
                        -0.633554,
                        39.485227
                    ],
                    [
                        -0.633457,
                        39.485141
                    ],
                    [
                        -0.633335,
                        39.48508
                    ],
                    [
                        -0.633172,
                        39.485036
                    ],
                    [
                        -0.63304,
                        39.485038
                    ],
                    [
                        -0.632915,
                        39.485054
                    ],
                    [
                        -0.632802,
                        39.485102
                    ],
                    [
                        -0.63257,
                        39.485223
                    ],
                    [
                        -0.632347,
                        39.485344
                    ],
                    [
                        -0.632196,
                        39.485427
                    ],
                    [
                        -0.63185,
                        39.485609
                    ],
                    [
                        -0.631748,
                        39.485666
                    ]
                ]
            },
            "id": "way/51765219",
            "bbox": [
                -0.633659,
                39.483787,
                -0.626055,
                39.48944
            ]
        },
        {
            "type": "Feature",
            "properties": {
                "@id": "way/1007068425",
                "highway": "raceway",
                "name": "Circuit Ricardo Tormo",
                "sport": "motor"
            },
            "geometry": {
                "type": "LineString",
                "coordinates": [
                    [
                        -0.631748,
                        39.485666
                    ],
                    [
                        -0.63162,
                        39.485788
                    ],
                    [
                        -0.631559,
                        39.4859
                    ],
                    [
                        -0.631379,
                        39.486612
                    ],
                    [
                        -0.631351,
                        39.486705
                    ],
                    [
                        -0.631289,
                        39.48679
                    ],
                    [
                        -0.631217,
                        39.486865
                    ],
                    [
                        -0.631122,
                        39.486931
                    ],
                    [
                        -0.630532,
                        39.487274
                    ],
                    [
                        -0.630388,
                        39.487306
                    ],
                    [
                        -0.630231,
                        39.487311
                    ],
                    [
                        -0.630192,
                        39.487302
                    ],
                    [
                        -0.630113,
                        39.487282
                    ],
                    [
                        -0.630018,
                        39.487225
                    ],
                    [
                        -0.629953,
                        39.487149
                    ],
                    [
                        -0.629908,
                        39.487066
                    ],
                    [
                        -0.629902,
                        39.486951
                    ],
                    [
                        -0.629946,
                        39.486842
                    ],
                    [
                        -0.630949,
                        39.485553
                    ],
                    [
                        -0.631672,
                        39.484623
                    ],
                    [
                        -0.631733,
                        39.484568
                    ],
                    [
                        -0.631823,
                        39.484529
                    ],
                    [
                        -0.632543,
                        39.484575
                    ],
                    [
                        -0.632596,
                        39.484578
                    ]
                ]
            },
            "id": "way/1007068425",
            "bbox": [
                -0.632596,
                39.484529,
                -0.629902,
                39.487311
            ]
        },
        {
            "type": "Feature",
            "properties": {
                "@id": "way/1086310124",
                "highway": "raceway",
                "name": "Pitlane",
                "sport": "motor"
            },
            "geometry": {
                "type": "LineString",
                "coordinates": [
                    [
                        -0.632995,
                        39.482395
                    ],
                    [
                        -0.632678,
                        39.482498
                    ]
                ]
            },
            "id": "way/1086310124",
            "bbox": [
                -0.632995,
                39.482395,
                -0.632678,
                39.482498
            ]
        },
        {
            "type": "Feature",
            "properties": {
                "@id": "way/1086479988",
                "highway": "raceway",
                "name": "Pitlane",
                "sport": "motor"
            },
            "geometry": {
                "type": "LineString",
                "coordinates": [
                    [
                        -0.633969,
                        39.481992
                    ],
                    [
                        -0.632995,
                        39.482395
                    ]
                ]
            },
            "id": "way/1086479988",
            "bbox": [
                -0.633969,
                39.481992,
                -0.632995,
                39.482395
            ]
        },
        {
            "type": "Feature",
            "properties": {
                "@id": "way/1336518434",
                "highway": "raceway",
                "name": "Circuit Ricardo Tormo",
                "sport": "motor"
            },
            "geometry": {
                "type": "LineString",
                "coordinates": [
                    [
                        -0.632596,
                        39.484578
                    ],
                    [
                        -0.632744,
                        39.484568
                    ],
                    [
                        -0.633044,
                        39.484547
                    ],
                    [
                        -0.633381,
                        39.484482
                    ],
                    [
                        -0.633592,
                        39.484423
                    ],
                    [
                        -0.633873,
                        39.484314
                    ],
                    [
                        -0.634185,
                        39.484133
                    ],
                    [
                        -0.634435,
                        39.483946
                    ],
                    [
                        -0.634571,
                        39.483818
                    ],
                    [
                        -0.634696,
                        39.483668
                    ],
                    [
                        -0.634849,
                        39.483491
                    ],
                    [
                        -0.635003,
                        39.483237
                    ],
                    [
                        -0.635084,
                        39.48299
                    ],
                    [
                        -0.635151,
                        39.482705
                    ],
                    [
                        -0.635166,
                        39.482533
                    ],
                    [
                        -0.635173,
                        39.482376
                    ],
                    [
                        -0.635115,
                        39.481963
                    ],
                    [
                        -0.635081,
                        39.481798
                    ],
                    [
                        -0.635021,
                        39.481706
                    ],
                    [
                        -0.634893,
                        39.481626
                    ],
                    [
                        -0.634808,
                        39.481599
                    ],
                    [
                        -0.634706,
                        39.481602
                    ],
                    [
                        -0.634623,
                        39.48164
                    ],
                    [
                        -0.633969,
                        39.481992
                    ],
                    [
                        -0.633356,
                        39.482322
                    ],
                    [
                        -0.63329,
                        39.482357
                    ],
                    [
                        -0.633252,
                        39.482378
                    ],
                    [
                        -0.633237,
                        39.482385
                    ],
                    [
                        -0.633199,
                        39.482406
                    ],
                    [
                        -0.633152,
                        39.482431
                    ],
                    [
                        -0.633109,
                        39.482454
                    ],
                    [
                        -0.633068,
                        39.482476
                    ],
                    [
                        -0.633042,
                        39.48249
                    ],
                    [
                        -0.633008,
                        39.482509
                    ],
                    [
                        -0.632979,
                        39.482527
                    ],
                    [
                        -0.632953,
                        39.482541
                    ],
                    [
                        -0.632936,
                        39.482553
                    ],
                    [
                        -0.632892,
                        39.482577
                    ],
                    [
                        -0.631072,
                        39.483548
                    ],
                    [
                        -0.630626,
                        39.483787
                    ]
                ]
            },
            "id": "way/1336518434",
            "bbox": [
                -0.635173,
                39.481599,
                -0.630626,
                39.484578
            ]
        },
        {
            "type": "Feature",
            "properties": {
                "name": "Ligne de départ/arrivée OXV",
                "type": "start_finish",
                "description": "Point GPS officiel OXV pour déclenchement chrono"
            },
            "geometry": {
                "type": "Point",
                "coordinates": [
                    -0.631076,
                    39.483568
                ]
            },
            "bbox": [
                -0.631076,
                39.483568,
                -0.631076,
                39.483568
            ]
        }
    ]
}